<?xml version="1.0" encoding="UTF-8"?>
<!-- track-length = 5308 filtered ascend = 42 plain-ascend = 5 cost=6679 energy=0.0kwh time=1h 3m 34s -->
<gpx 
 xmlns="http://www.topografix.com/GPX/1/1" 
 xmlns:xsi="http://www.w3.org/2001/XMLSchema-instance" 
 xsi:schemaLocation="http://www.topografix.com/GPX/1/1 http://www.topografix.com/GPX/1/1/gpx.xsd" 
 version="1.1" 
 creator="BRouter-Web 0.18.1">
 <trk>
  <name>Wannsee (5.3km)</name>
  <trkseg>
   <trkpt lat="52.432588" lon="13.185793"><ele>36.75</ele></trkpt>
   <trkpt lat="52.432622" lon="13.185829"><ele>37.25</ele></trkpt>
   <trkpt lat="52.433001" lon="13.185188"><ele>39.25</ele></trkpt>
   <trkpt lat="52.433036" lon="13.185183"><ele>39.75</ele></trkpt>
   <trkpt lat="52.43306" lon="13.185139"><ele>40</ele></trkpt>
   <trkpt lat="52.4331" lon="13.185078"><ele>40.25</ele></trkpt>
   <trkpt lat="52.433641" lon="13.184149"><ele>42</ele></trkpt>
   <trkpt lat="52.434524" lon="13.182635"><ele>43</ele></trkpt>
   <trkpt lat="52.434709" lon="13.182232"><ele>43.75</ele></trkpt>
   <trkpt lat="52.435374" lon="13.181076"><ele>45.25</ele></trkpt>
   <trkpt lat="52.435609" lon="13.180858"><ele>45.25</ele></trkpt>
   <trkpt lat="52.435684" lon="13.180875"><ele>45.5</ele></trkpt>
   <trkpt lat="52.436508" lon="13.180348"><ele>45.5</ele></trkpt>
   <trkpt lat="52.436999" lon="13.179984"><ele>45</ele></trkpt>
   <trkpt lat="52.437709" lon="13.179528"><ele>47.25</ele></trkpt>
   <trkpt lat="52.437873" lon="13.179461"><ele>47.75</ele></trkpt>
   <trkpt lat="52.438082" lon="13.179608"><ele>48</ele></trkpt>
   <trkpt lat="52.438352" lon="13.179789"><ele>48.75</ele></trkpt>
   <trkpt lat="52.438669" lon="13.180025"><ele>48.75</ele></trkpt>
   <trkpt lat="52.439012" lon="13.18031"><ele>48.5</ele></trkpt>
   <trkpt lat="52.439063" lon="13.180352"><ele>48.5</ele></trkpt>
   <trkpt lat="52.439446" lon="13.18067"><ele>49</ele></trkpt>
   <trkpt lat="52.440095" lon="13.181178"><ele>49.25</ele></trkpt>
   <trkpt lat="52.440237" lon="13.181204"><ele>49.5</ele></trkpt>
   <trkpt lat="52.440587" lon="13.181111"><ele>49.75</ele></trkpt>
   <trkpt lat="52.440663" lon="13.180987"><ele>49.5</ele></trkpt>
   <trkpt lat="52.440888" lon="13.180752"><ele>48.75</ele></trkpt>
   <trkpt lat="52.441931" lon="13.179865"><ele>50.5</ele></trkpt>
   <trkpt lat="52.442482" lon="13.179138"><ele>50</ele></trkpt>
   <trkpt lat="52.442522" lon="13.17878"><ele>50.25</ele></trkpt>
   <trkpt lat="52.44261" lon="13.178428"><ele>49.75</ele></trkpt>
   <trkpt lat="52.44288" lon="13.177948"><ele>46.5</ele></trkpt>
   <trkpt lat="52.44289" lon="13.177956"><ele>48</ele></trkpt>
   <trkpt lat="52.443208" lon="13.178194"><ele>48</ele></trkpt>
   <trkpt lat="52.443325" lon="13.178026"><ele>46.75</ele></trkpt>
   <trkpt lat="52.443497" lon="13.177906"><ele>46.25</ele></trkpt>
   <trkpt lat="52.443971" lon="13.177814"><ele>44.75</ele></trkpt>
   <trkpt lat="52.444166" lon="13.177765"><ele>43.75</ele></trkpt>
   <trkpt lat="52.444379" lon="13.177585"><ele>42.75</ele></trkpt>
   <trkpt lat="52.444574" lon="13.177183"><ele>37.25</ele></trkpt>
   <trkpt lat="52.444746" lon="13.17702"><ele>34.5</ele></trkpt>
   <trkpt lat="52.444869" lon="13.17704"><ele>34.75</ele></trkpt>
   <trkpt lat="52.444989" lon="13.17702"><ele>34.75</ele></trkpt>
   <trkpt lat="52.444966" lon="13.177532"><ele>40.75</ele></trkpt>
   <trkpt lat="52.444979" lon="13.178015"><ele>43.75</ele></trkpt>
   <trkpt lat="52.445371" lon="13.180246"><ele>48.25</ele></trkpt>
   <trkpt lat="52.44589" lon="13.17917"><ele>50.75</ele></trkpt>
   <trkpt lat="52.44606" lon="13.1788"><ele>49.75</ele></trkpt>
   <trkpt lat="52.446575" lon="13.179362"><ele>48.75</ele></trkpt>
   <trkpt lat="52.446687" lon="13.179385"><ele>48.5</ele></trkpt>
   <trkpt lat="52.446986" lon="13.179287"><ele>48.5</ele></trkpt>
   <trkpt lat="52.44721" lon="13.179157"><ele>48.75</ele></trkpt>
   <trkpt lat="52.44746" lon="13.179181"><ele>49.75</ele></trkpt>
   <trkpt lat="52.44793" lon="13.179483"><ele>52.75</ele></trkpt>
   <trkpt lat="52.448089" lon="13.179657"><ele>54</ele></trkpt>
   <trkpt lat="52.448237" lon="13.179832"><ele>54.25</ele></trkpt>
   <trkpt lat="52.448288" lon="13.179895"><ele>54.5</ele></trkpt>
   <trkpt lat="52.448317" lon="13.179929"><ele>54.5</ele></trkpt>
   <trkpt lat="52.448384" lon="13.180027"><ele>53</ele></trkpt>
   <trkpt lat="52.448447" lon="13.180169"><ele>51.75</ele></trkpt>
   <trkpt lat="52.448519" lon="13.180405"><ele>51.5</ele></trkpt>
   <trkpt lat="52.448569" lon="13.180942"><ele>52.75</ele></trkpt>
   <trkpt lat="52.448537" lon="13.181523"><ele>52</ele></trkpt>
   <trkpt lat="52.448528" lon="13.182139"><ele>51.75</ele></trkpt>
   <trkpt lat="52.448529" lon="13.182569"><ele>50.75</ele></trkpt>
   <trkpt lat="52.448528" lon="13.182618"><ele>50.5</ele></trkpt>
   <trkpt lat="52.448534" lon="13.182832"><ele>49.25</ele></trkpt>
   <trkpt lat="52.448535" lon="13.182857"><ele>49.25</ele></trkpt>
   <trkpt lat="52.448475" lon="13.183641"><ele>46.25</ele></trkpt>
   <trkpt lat="52.448499" lon="13.184015"><ele>44.75</ele></trkpt>
   <trkpt lat="52.448441" lon="13.184564"><ele>44.75</ele></trkpt>
   <trkpt lat="52.448434" lon="13.184633"><ele>44.75</ele></trkpt>
   <trkpt lat="52.448447" lon="13.184854"><ele>43.25</ele></trkpt>
   <trkpt lat="52.448393" lon="13.185363"><ele>41.75</ele></trkpt>
   <trkpt lat="52.448377" lon="13.185594"><ele>41</ele></trkpt>
   <trkpt lat="52.448324" lon="13.185725"><ele>40.5</ele></trkpt>
   <trkpt lat="52.448216" lon="13.185851"><ele>40.25</ele></trkpt>
   <trkpt lat="52.448296" lon="13.18625"><ele>43.25</ele></trkpt>
   <trkpt lat="52.448286" lon="13.186424"><ele>45.5</ele></trkpt>
   <trkpt lat="52.448279" lon="13.18651"><ele>45.75</ele></trkpt>
   <trkpt lat="52.44825" lon="13.186639"><ele>46.5</ele></trkpt>
   <trkpt lat="52.448268" lon="13.187568"><ele>44.75</ele></trkpt>
   <trkpt lat="52.448378" lon="13.187999"><ele>43.5</ele></trkpt>
   <trkpt lat="52.448569" lon="13.188578"><ele>42.75</ele></trkpt>
   <trkpt lat="52.448736" lon="13.188888"><ele>39.75</ele></trkpt>
   <trkpt lat="52.448752" lon="13.189384"><ele>42.75</ele></trkpt>
   <trkpt lat="52.448635" lon="13.190211"><ele>41.25</ele></trkpt>
   <trkpt lat="52.448612" lon="13.190378"><ele>41.25</ele></trkpt>
   <trkpt lat="52.448535" lon="13.191092"><ele>43.5</ele></trkpt>
   <trkpt lat="52.448416" lon="13.191956"><ele>45.25</ele></trkpt>
   <trkpt lat="52.448369" lon="13.191726"><ele>45</ele></trkpt>
   <trkpt lat="52.448257" lon="13.191529"><ele>44.5</ele></trkpt>
   <trkpt lat="52.448095" lon="13.191269"><ele>43.75</ele></trkpt>
   <trkpt lat="52.447954" lon="13.191002"><ele>44</ele></trkpt>
   <trkpt lat="52.447672" lon="13.19015"><ele>47.25</ele></trkpt>
   <trkpt lat="52.447445" lon="13.189994"><ele>48</ele></trkpt>
   <trkpt lat="52.447232" lon="13.189935"><ele>48.75</ele></trkpt>
   <trkpt lat="52.446942" lon="13.189951"><ele>49</ele></trkpt>
   <trkpt lat="52.44652" lon="13.190069"><ele>50.5</ele></trkpt>
   <trkpt lat="52.446098" lon="13.190096"><ele>50</ele></trkpt>
   <trkpt lat="52.445771" lon="13.190053"><ele>50.25</ele></trkpt>
   <trkpt lat="52.445441" lon="13.189967"><ele>50.75</ele></trkpt>
   <trkpt lat="52.445054" lon="13.189892"><ele>51</ele></trkpt>
   <trkpt lat="52.444502" lon="13.189774"><ele>50</ele></trkpt>
   <trkpt lat="52.444192" lon="13.189747"><ele>50</ele></trkpt>
   <trkpt lat="52.443993" lon="13.189758"><ele>50</ele></trkpt>
   <trkpt lat="52.441989" lon="13.187235"><ele>51</ele></trkpt>
   <trkpt lat="52.44194" lon="13.187339"><ele>51</ele></trkpt>
   <trkpt lat="52.440788" lon="13.187587"><ele>51.75</ele></trkpt>
   <trkpt lat="52.440641" lon="13.187641"><ele>51.5</ele></trkpt>
   <trkpt lat="52.440352" lon="13.187856"><ele>50.25</ele></trkpt>
   <trkpt lat="52.440206" lon="13.187993"><ele>49.75</ele></trkpt>
   <trkpt lat="52.44001" lon="13.188148"><ele>48.25</ele></trkpt>
   <trkpt lat="52.439874" lon="13.188252"><ele>47.25</ele></trkpt>
   <trkpt lat="52.439694" lon="13.188476"><ele>46.25</ele></trkpt>
   <trkpt lat="52.439574" lon="13.188644"><ele>46.5</ele></trkpt>
   <trkpt lat="52.439417" lon="13.188933"><ele>46</ele></trkpt>
   <trkpt lat="52.439309" lon="13.189033"><ele>46</ele></trkpt>
   <trkpt lat="52.439269" lon="13.189044"><ele>46</ele></trkpt>
   <trkpt lat="52.43851" lon="13.189119"><ele>46</ele></trkpt>
   <trkpt lat="52.438408" lon="13.18918"><ele>46</ele></trkpt>
   <trkpt lat="52.43828" lon="13.189301"><ele>46</ele></trkpt>
   <trkpt lat="52.438229" lon="13.189328"><ele>46</ele></trkpt>
   <trkpt lat="52.438162" lon="13.189364"><ele>46</ele></trkpt>
   <trkpt lat="52.437972" lon="13.189418"><ele>46</ele></trkpt>
   <trkpt lat="52.437782" lon="13.189486"><ele>46</ele></trkpt>
   <trkpt lat="52.43761" lon="13.189527"><ele>46</ele></trkpt>
   <trkpt lat="52.437421" lon="13.189557"><ele>46</ele></trkpt>
   <trkpt lat="52.43667" lon="13.189703"><ele>47.75</ele></trkpt>
   <trkpt lat="52.436504" lon="13.189703"><ele>48</ele></trkpt>
   <trkpt lat="52.43575" lon="13.189544"><ele>47</ele></trkpt>
   <trkpt lat="52.435467" lon="13.189416"><ele>46.5</ele></trkpt>
   <trkpt lat="52.435306" lon="13.189358"><ele>46.25</ele></trkpt>
   <trkpt lat="52.43513" lon="13.189339"><ele>45.75</ele></trkpt>
   <trkpt lat="52.434645" lon="13.189462"><ele>45.25</ele></trkpt>
   <trkpt lat="52.434388" lon="13.189549"><ele>43.75</ele></trkpt>
   <trkpt lat="52.434199" lon="13.189549"><ele>43</ele></trkpt>
   <trkpt lat="52.43408" lon="13.189517"><ele>42.5</ele></trkpt>
   <trkpt lat="52.433978" lon="13.18943"><ele>42.25</ele></trkpt>
   <trkpt lat="52.433952" lon="13.189305"><ele>42</ele></trkpt>
   <trkpt lat="52.433945" lon="13.189294"><ele>42</ele></trkpt>
   <trkpt lat="52.433907" lon="13.189228"><ele>42</ele></trkpt>
   <trkpt lat="52.433857" lon="13.189142"><ele>42</ele></trkpt>
   <trkpt lat="52.433844" lon="13.189121"><ele>42</ele></trkpt>
   <trkpt lat="52.433806" lon="13.189056"><ele>42.25</ele></trkpt>
   <trkpt lat="52.43378" lon="13.1891"><ele>42</ele></trkpt>
   <trkpt lat="52.433711" lon="13.189198"><ele>41.75</ele></trkpt>
   <trkpt lat="52.433693" lon="13.189162"><ele>42</ele></trkpt>
   <trkpt lat="52.433666" lon="13.189109"><ele>42</ele></trkpt>
   <trkpt lat="52.433345" lon="13.188476"><ele>41</ele></trkpt>
   <trkpt lat="52.433131" lon="13.188104"><ele>39.75</ele></trkpt>
   <trkpt lat="52.432665" lon="13.187388"><ele>37</ele></trkpt>
   <trkpt lat="52.432602" lon="13.187292"><ele>36.5</ele></trkpt>
   <trkpt lat="52.432396" lon="13.186977"><ele>35.5</ele></trkpt>
   <trkpt lat="52.432201" lon="13.186676"><ele>34.75</ele></trkpt>
   <trkpt lat="52.432415" lon="13.186263"><ele>36.25</ele></trkpt>
   <trkpt lat="52.432399" lon="13.186237"><ele>36</ele></trkpt>
   <trkpt lat="52.432531" lon="13.185995"><ele>37.25</ele></trkpt>
  </trkseg>
 </trk>
</gpx>