<?xml version="1.0" encoding="UTF-8"?>
<!-- track-length = 17644 filtered ascend = 77 plain-ascend = 3 cost=21588 energy=0.1kwh time=3h 30m 26s -->
<gpx 
 xmlns="http://www.topografix.com/GPX/1/1" 
 xmlns:xsi="http://www.w3.org/2001/XMLSchema-instance" 
 xsi:schemaLocation="http://www.topografix.com/GPX/1/1 http://www.topografix.com/GPX/1/1/gpx.xsd" 
 version="1.1" 
 creator="BRouter-Web 0.18.1">
 <trk>
  <name>Pfaueninsel (17.6km)</name>
  <trkseg>
   <trkpt lat="52.432588" lon="13.185793"><ele>36.75</ele></trkpt>
   <trkpt lat="52.432622" lon="13.185829"><ele>37.25</ele></trkpt>
   <trkpt lat="52.432399" lon="13.186237"><ele>36</ele></trkpt>
   <trkpt lat="52.432259" lon="13.186474"><ele>35.25</ele></trkpt>
   <trkpt lat="52.432224" lon="13.186476"><ele>35</ele></trkpt>
   <trkpt lat="52.432184" lon="13.186456"><ele>34.75</ele></trkpt>
   <trkpt lat="52.431742" lon="13.185768"><ele>33.5</ele></trkpt>
   <trkpt lat="52.431547" lon="13.185514"><ele>33</ele></trkpt>
   <trkpt lat="52.431456" lon="13.185441"><ele>32.75</ele></trkpt>
   <trkpt lat="52.431126" lon="13.185186"><ele>32</ele></trkpt>
   <trkpt lat="52.431029" lon="13.185138"><ele>32</ele></trkpt>
   <trkpt lat="52.430786" lon="13.185055"><ele>32</ele></trkpt>
   <trkpt lat="52.43038" lon="13.184971"><ele>32</ele></trkpt>
   <trkpt lat="52.429484" lon="13.184818"><ele>32</ele></trkpt>
   <trkpt lat="52.429266" lon="13.184812"><ele>32</ele></trkpt>
   <trkpt lat="52.428993" lon="13.184863"><ele>32</ele></trkpt>
   <trkpt lat="52.429138" lon="13.184259"><ele>32</ele></trkpt>
   <trkpt lat="52.428622" lon="13.183988"><ele>32.75</ele></trkpt>
   <trkpt lat="52.428514" lon="13.183962"><ele>33.25</ele></trkpt>
   <trkpt lat="52.428492" lon="13.183957"><ele>33.25</ele></trkpt>
   <trkpt lat="52.428393" lon="13.183934"><ele>33.75</ele></trkpt>
   <trkpt lat="52.42832" lon="13.183917"><ele>34</ele></trkpt>
   <trkpt lat="52.428046" lon="13.18406"><ele>37.5</ele></trkpt>
   <trkpt lat="52.427765" lon="13.184255"><ele>41.25</ele></trkpt>
   <trkpt lat="52.427607" lon="13.184406"><ele>41.75</ele></trkpt>
   <trkpt lat="52.427571" lon="13.184338"><ele>41.75</ele></trkpt>
   <trkpt lat="52.427404" lon="13.18429"><ele>42</ele></trkpt>
   <trkpt lat="52.427352" lon="13.184249"><ele>42</ele></trkpt>
   <trkpt lat="52.426941" lon="13.183792"><ele>42</ele></trkpt>
   <trkpt lat="52.426025" lon="13.18279"><ele>42</ele></trkpt>
   <trkpt lat="52.425535" lon="13.182264"><ele>41</ele></trkpt>
   <trkpt lat="52.424564" lon="13.181396"><ele>40.25</ele></trkpt>
   <trkpt lat="52.424333" lon="13.181204"><ele>40</ele></trkpt>
   <trkpt lat="52.423547" lon="13.180521"><ele>41.25</ele></trkpt>
   <trkpt lat="52.422563" lon="13.179671"><ele>44.25</ele></trkpt>
   <trkpt lat="52.42244" lon="13.179638"><ele>44.25</ele></trkpt>
   <trkpt lat="52.422097" lon="13.179587"><ele>43.75</ele></trkpt>
   <trkpt lat="52.422036" lon="13.179573"><ele>43.5</ele></trkpt>
   <trkpt lat="52.422011" lon="13.179536"><ele>43.25</ele></trkpt>
   <trkpt lat="52.421977" lon="13.179394"><ele>43</ele></trkpt>
   <trkpt lat="52.421805" lon="13.178891"><ele>42.25</ele></trkpt>
   <trkpt lat="52.421797" lon="13.178897"><ele>42.25</ele></trkpt>
   <trkpt lat="52.421752" lon="13.178934"><ele>42.25</ele></trkpt>
   <trkpt lat="52.421677" lon="13.178646"><ele>42</ele></trkpt>
   <trkpt lat="52.421624" lon="13.178438"><ele>41.75</ele></trkpt>
   <trkpt lat="52.421598" lon="13.178335"><ele>41.75</ele></trkpt>
   <trkpt lat="52.421635" lon="13.178262"><ele>42</ele></trkpt>
   <trkpt lat="52.42166" lon="13.178215"><ele>42.25</ele></trkpt>
   <trkpt lat="52.421698" lon="13.178106"><ele>43</ele></trkpt>
   <trkpt lat="52.421722" lon="13.177986"><ele>43.25</ele></trkpt>
   <trkpt lat="52.421728" lon="13.177853"><ele>43.25</ele></trkpt>
   <trkpt lat="52.42175" lon="13.177671"><ele>43.75</ele></trkpt>
   <trkpt lat="52.421789" lon="13.177476"><ele>44.5</ele></trkpt>
   <trkpt lat="52.421832" lon="13.17734"><ele>42.75</ele></trkpt>
   <trkpt lat="52.421742" lon="13.177266"><ele>42.75</ele></trkpt>
   <trkpt lat="52.421612" lon="13.177181"><ele>42.5</ele></trkpt>
   <trkpt lat="52.421304" lon="13.17698"><ele>39.75</ele></trkpt>
   <trkpt lat="52.42114" lon="13.176523"><ele>38.25</ele></trkpt>
   <trkpt lat="52.421101" lon="13.176309"><ele>38</ele></trkpt>
   <trkpt lat="52.421037" lon="13.176035"><ele>35.75</ele></trkpt>
   <trkpt lat="52.421013" lon="13.175904"><ele>34.5</ele></trkpt>
   <trkpt lat="52.420958" lon="13.175716"><ele>34</ele></trkpt>
   <trkpt lat="52.420906" lon="13.175636"><ele>34.5</ele></trkpt>
   <trkpt lat="52.420737" lon="13.175516"><ele>35.25</ele></trkpt>
   <trkpt lat="52.420463" lon="13.175388"><ele>35.75</ele></trkpt>
   <trkpt lat="52.420308" lon="13.175334"><ele>35.75</ele></trkpt>
   <trkpt lat="52.420221" lon="13.175274"><ele>35.75</ele></trkpt>
   <trkpt lat="52.42021" lon="13.175201"><ele>35.75</ele></trkpt>
   <trkpt lat="52.420213" lon="13.175128"><ele>35.75</ele></trkpt>
   <trkpt lat="52.420179" lon="13.175096"><ele>35.75</ele></trkpt>
   <trkpt lat="52.420248" lon="13.174894"><ele>35.75</ele></trkpt>
   <trkpt lat="52.420353" lon="13.174552"><ele>34.5</ele></trkpt>
   <trkpt lat="52.420392" lon="13.174415"><ele>34</ele></trkpt>
   <trkpt lat="52.420642" lon="13.173529"><ele>33.75</ele></trkpt>
   <trkpt lat="52.420697" lon="13.173307"><ele>33.5</ele></trkpt>
   <trkpt lat="52.420788" lon="13.172878"><ele>35.25</ele></trkpt>
   <trkpt lat="52.420845" lon="13.172533"><ele>35.75</ele></trkpt>
   <trkpt lat="52.420873" lon="13.172315"><ele>35.25</ele></trkpt>
   <trkpt lat="52.420897" lon="13.171866"><ele>32.5</ele></trkpt>
   <trkpt lat="52.420942" lon="13.171046"><ele>32.25</ele></trkpt>
   <trkpt lat="52.420954" lon="13.170696"><ele>34.75</ele></trkpt>
   <trkpt lat="52.420944" lon="13.170387"><ele>35</ele></trkpt>
   <trkpt lat="52.420934" lon="13.170243"><ele>35.5</ele></trkpt>
   <trkpt lat="52.420771" lon="13.168641"><ele>39</ele></trkpt>
   <trkpt lat="52.42073" lon="13.168267"><ele>40</ele></trkpt>
   <trkpt lat="52.420723" lon="13.168178"><ele>40.25</ele></trkpt>
   <trkpt lat="52.420705" lon="13.168001"><ele>40.5</ele></trkpt>
   <trkpt lat="52.420631" lon="13.167298"><ele>40.75</ele></trkpt>
   <trkpt lat="52.420613" lon="13.167181"><ele>41</ele></trkpt>
   <trkpt lat="52.420605" lon="13.167128"><ele>41.25</ele></trkpt>
   <trkpt lat="52.420679" lon="13.167091"><ele>41.25</ele></trkpt>
   <trkpt lat="52.420763" lon="13.16702"><ele>41</ele></trkpt>
   <trkpt lat="52.420828" lon="13.166965"><ele>41</ele></trkpt>
   <trkpt lat="52.420938" lon="13.166849"><ele>40.75</ele></trkpt>
   <trkpt lat="52.421052" lon="13.16667"><ele>41</ele></trkpt>
   <trkpt lat="52.421085" lon="13.166618"><ele>41</ele></trkpt>
   <trkpt lat="52.421204" lon="13.166368"><ele>41</ele></trkpt>
   <trkpt lat="52.421296" lon="13.166091"><ele>41</ele></trkpt>
   <trkpt lat="52.421359" lon="13.165762"><ele>41.25</ele></trkpt>
   <trkpt lat="52.421379" lon="13.165617"><ele>41.75</ele></trkpt>
   <trkpt lat="52.421384" lon="13.165468"><ele>42.25</ele></trkpt>
   <trkpt lat="52.421434" lon="13.165451"><ele>41.75</ele></trkpt>
   <trkpt lat="52.421427" lon="13.165268"><ele>42.5</ele></trkpt>
   <trkpt lat="52.421398" lon="13.165129"><ele>43.25</ele></trkpt>
   <trkpt lat="52.421389" lon="13.165039"><ele>43.75</ele></trkpt>
   <trkpt lat="52.421341" lon="13.164567"><ele>45.25</ele></trkpt>
   <trkpt lat="52.421367" lon="13.164465"><ele>45</ele></trkpt>
   <trkpt lat="52.422098" lon="13.16252"><ele>44.75</ele></trkpt>
   <trkpt lat="52.422488" lon="13.161488"><ele>44.5</ele></trkpt>
   <trkpt lat="52.422596" lon="13.161233"><ele>44.75</ele></trkpt>
   <trkpt lat="52.422671" lon="13.161143"><ele>44.5</ele></trkpt>
   <trkpt lat="52.42278" lon="13.161094"><ele>44</ele></trkpt>
   <trkpt lat="52.423202" lon="13.160924"><ele>41.75</ele></trkpt>
   <trkpt lat="52.423192" lon="13.160842"><ele>42</ele></trkpt>
   <trkpt lat="52.423182" lon="13.16077"><ele>42</ele></trkpt>
   <trkpt lat="52.423236" lon="13.160683"><ele>42</ele></trkpt>
   <trkpt lat="52.423368" lon="13.160204"><ele>44</ele></trkpt>
   <trkpt lat="52.42347" lon="13.159732"><ele>45.75</ele></trkpt>
   <trkpt lat="52.423545" lon="13.159323"><ele>46.5</ele></trkpt>
   <trkpt lat="52.423542" lon="13.159255"><ele>46.75</ele></trkpt>
   <trkpt lat="52.423558" lon="13.159178"><ele>47</ele></trkpt>
   <trkpt lat="52.423577" lon="13.159082"><ele>47.25</ele></trkpt>
   <trkpt lat="52.423602" lon="13.159045"><ele>47.25</ele></trkpt>
   <trkpt lat="52.4237" lon="13.158741"><ele>48.5</ele></trkpt>
   <trkpt lat="52.423816" lon="13.158551"><ele>49</ele></trkpt>
   <trkpt lat="52.423824" lon="13.158498"><ele>49</ele></trkpt>
   <trkpt lat="52.423812" lon="13.15843"><ele>49</ele></trkpt>
   <trkpt lat="52.423732" lon="13.158334"><ele>49</ele></trkpt>
   <trkpt lat="52.423633" lon="13.158155"><ele>49.5</ele></trkpt>
   <trkpt lat="52.423583" lon="13.158034"><ele>50</ele></trkpt>
   <trkpt lat="52.423526" lon="13.157838"><ele>50.75</ele></trkpt>
   <trkpt lat="52.423496" lon="13.157684"><ele>51</ele></trkpt>
   <trkpt lat="52.423477" lon="13.157518"><ele>51.25</ele></trkpt>
   <trkpt lat="52.423484" lon="13.157307"><ele>51.5</ele></trkpt>
   <trkpt lat="52.423527" lon="13.157036"><ele>51.5</ele></trkpt>
   <trkpt lat="52.423571" lon="13.156844"><ele>51.75</ele></trkpt>
   <trkpt lat="52.423602" lon="13.156783"><ele>51.75</ele></trkpt>
   <trkpt lat="52.423647" lon="13.156727"><ele>51.75</ele></trkpt>
   <trkpt lat="52.42373" lon="13.156631"><ele>51.5</ele></trkpt>
   <trkpt lat="52.423805" lon="13.156574"><ele>51.25</ele></trkpt>
   <trkpt lat="52.424252" lon="13.156397"><ele>50.5</ele></trkpt>
   <trkpt lat="52.424733" lon="13.156207"><ele>49.75</ele></trkpt>
   <trkpt lat="52.424946" lon="13.156131"><ele>49</ele></trkpt>
   <trkpt lat="52.424959" lon="13.156047"><ele>49</ele></trkpt>
   <trkpt lat="52.42475" lon="13.15448"><ele>50.75</ele></trkpt>
   <trkpt lat="52.424742" lon="13.154398"><ele>51</ele></trkpt>
   <trkpt lat="52.424734" lon="13.154322"><ele>51</ele></trkpt>
   <trkpt lat="52.424757" lon="13.15427"><ele>51</ele></trkpt>
   <trkpt lat="52.424787" lon="13.1542"><ele>50.75</ele></trkpt>
   <trkpt lat="52.424802" lon="13.154174"><ele>51</ele></trkpt>
   <trkpt lat="52.42467" lon="13.153106"><ele>52.5</ele></trkpt>
   <trkpt lat="52.424643" lon="13.152924"><ele>52.75</ele></trkpt>
   <trkpt lat="52.424571" lon="13.15278"><ele>52.75</ele></trkpt>
   <trkpt lat="52.424523" lon="13.152747"><ele>53</ele></trkpt>
   <trkpt lat="52.424614" lon="13.15263"><ele>53</ele></trkpt>
   <trkpt lat="52.424645" lon="13.152562"><ele>53</ele></trkpt>
   <trkpt lat="52.424688" lon="13.151957"><ele>53</ele></trkpt>
   <trkpt lat="52.424565" lon="13.150709"><ele>56</ele></trkpt>
   <trkpt lat="52.424416" lon="13.149725"><ele>57</ele></trkpt>
   <trkpt lat="52.424635" lon="13.149442"><ele>57</ele></trkpt>
   <trkpt lat="52.424858" lon="13.149447"><ele>57.25</ele></trkpt>
   <trkpt lat="52.424984" lon="13.149404"><ele>57.75</ele></trkpt>
   <trkpt lat="52.425026" lon="13.14919"><ele>58</ele></trkpt>
   <trkpt lat="52.425312" lon="13.148747"><ele>59.75</ele></trkpt>
   <trkpt lat="52.425184" lon="13.147602"><ele>60.5</ele></trkpt>
   <trkpt lat="52.42556" lon="13.146812"><ele>62.25</ele></trkpt>
   <trkpt lat="52.425891" lon="13.145907"><ele>64</ele></trkpt>
   <trkpt lat="52.426113" lon="13.144943"><ele>65.75</ele></trkpt>
   <trkpt lat="52.426084" lon="13.144798"><ele>66</ele></trkpt>
   <trkpt lat="52.426273" lon="13.143734"><ele>66.5</ele></trkpt>
   <trkpt lat="52.426281" lon="13.143567"><ele>67.75</ele></trkpt>
   <trkpt lat="52.426301" lon="13.143165"><ele>67.75</ele></trkpt>
   <trkpt lat="52.426305" lon="13.142404"><ele>66.75</ele></trkpt>
   <trkpt lat="52.42624" lon="13.141897"><ele>65.25</ele></trkpt>
   <trkpt lat="52.426201" lon="13.141529"><ele>63.75</ele></trkpt>
   <trkpt lat="52.426076" lon="13.140333"><ele>63.75</ele></trkpt>
   <trkpt lat="52.425708" lon="13.138695"><ele>65.5</ele></trkpt>
   <trkpt lat="52.425678" lon="13.138446"><ele>66</ele></trkpt>
   <trkpt lat="52.425554" lon="13.137916"><ele>66</ele></trkpt>
   <trkpt lat="52.425391" lon="13.137323"><ele>67.75</ele></trkpt>
   <trkpt lat="52.425304" lon="13.136737"><ele>66.25</ele></trkpt>
   <trkpt lat="52.425136" lon="13.136032"><ele>62.25</ele></trkpt>
   <trkpt lat="52.425105" lon="13.135483"><ele>61.25</ele></trkpt>
   <trkpt lat="52.425092" lon="13.134803"><ele>59.25</ele></trkpt>
   <trkpt lat="52.425204" lon="13.133792"><ele>56.25</ele></trkpt>
   <trkpt lat="52.425379" lon="13.132806"><ele>54</ele></trkpt>
   <trkpt lat="52.425472" lon="13.132548"><ele>54</ele></trkpt>
   <trkpt lat="52.425592" lon="13.132332"><ele>53.75</ele></trkpt>
   <trkpt lat="52.425724" lon="13.131787"><ele>53.75</ele></trkpt>
   <trkpt lat="52.425916" lon="13.131228"><ele>53.75</ele></trkpt>
   <trkpt lat="52.426029" lon="13.130848"><ele>53.75</ele></trkpt>
   <trkpt lat="52.426493" lon="13.129721"><ele>46.5</ele></trkpt>
   <trkpt lat="52.426582" lon="13.129398"><ele>45.75</ele></trkpt>
   <trkpt lat="52.426863" lon="13.128755"><ele>45</ele></trkpt>
   <trkpt lat="52.426972" lon="13.128532"><ele>44</ele></trkpt>
   <trkpt lat="52.427148" lon="13.128239"><ele>45</ele></trkpt>
   <trkpt lat="52.427826" lon="13.127063"><ele>43</ele></trkpt>
   <trkpt lat="52.427968" lon="13.126747"><ele>41.75</ele></trkpt>
   <trkpt lat="52.42806" lon="13.12672"><ele>40.75</ele></trkpt>
   <trkpt lat="52.428146" lon="13.126422"><ele>40.5</ele></trkpt>
   <trkpt lat="52.428215" lon="13.126084"><ele>40.5</ele></trkpt>
   <trkpt lat="52.428259" lon="13.125619"><ele>39</ele></trkpt>
   <trkpt lat="52.428265" lon="13.125317"><ele>38.25</ele></trkpt>
   <trkpt lat="52.428246" lon="13.124549"><ele>37</ele></trkpt>
   <trkpt lat="52.428152" lon="13.124216"><ele>37.25</ele></trkpt>
   <trkpt lat="52.428267" lon="13.123996"><ele>36.25</ele></trkpt>
   <trkpt lat="52.428299" lon="13.123908"><ele>36</ele></trkpt>
   <trkpt lat="52.428337" lon="13.123801"><ele>35.5</ele></trkpt>
   <trkpt lat="52.428344" lon="13.123748"><ele>35.25</ele></trkpt>
   <trkpt lat="52.42839" lon="13.12355"><ele>34</ele></trkpt>
   <trkpt lat="52.42841" lon="13.123467"><ele>33.75</ele></trkpt>
   <trkpt lat="52.428445" lon="13.123319"><ele>33.25</ele></trkpt>
   <trkpt lat="52.428543" lon="13.123105"><ele>33</ele></trkpt>
   <trkpt lat="52.428674" lon="13.122852"><ele>32.25</ele></trkpt>
   <trkpt lat="52.428734" lon="13.122759"><ele>32</ele></trkpt>
   <trkpt lat="52.428879" lon="13.122591"><ele>31.5</ele></trkpt>
   <trkpt lat="52.428996" lon="13.122547"><ele>31.25</ele></trkpt>
   <trkpt lat="52.42912" lon="13.122411"><ele>31</ele></trkpt>
   <trkpt lat="52.429168" lon="13.122335"><ele>30.75</ele></trkpt>
   <trkpt lat="52.429233" lon="13.122231"><ele>30.75</ele></trkpt>
   <trkpt lat="52.429261" lon="13.122161"><ele>30.25</ele></trkpt>
   <trkpt lat="52.429315" lon="13.12203"><ele>29.75</ele></trkpt>
   <trkpt lat="52.429391" lon="13.121835"><ele>29.5</ele></trkpt>
   <trkpt lat="52.430036" lon="13.120804"><ele>30.25</ele></trkpt>
   <trkpt lat="52.430123" lon="13.120764"><ele>31.25</ele></trkpt>
   <trkpt lat="52.43016" lon="13.120744"><ele>31.75</ele></trkpt>
   <trkpt lat="52.430246" lon="13.120988"><ele>31.25</ele></trkpt>
   <trkpt lat="52.430255" lon="13.121005"><ele>31.25</ele></trkpt>
   <trkpt lat="52.430356" lon="13.121014"><ele>32.75</ele></trkpt>
   <trkpt lat="52.430446" lon="13.121148"><ele>34.5</ele></trkpt>
   <trkpt lat="52.430523" lon="13.121439"><ele>36</ele></trkpt>
   <trkpt lat="52.430593" lon="13.121786"><ele>36.75</ele></trkpt>
   <trkpt lat="52.430653" lon="13.122332"><ele>36.25</ele></trkpt>
   <trkpt lat="52.430657" lon="13.122515"><ele>36.25</ele></trkpt>
   <trkpt lat="52.430678" lon="13.122604"><ele>36.75</ele></trkpt>
   <trkpt lat="52.430795" lon="13.122686"><ele>38.25</ele></trkpt>
   <trkpt lat="52.430859" lon="13.12356"><ele>40.75</ele></trkpt>
   <trkpt lat="52.430863" lon="13.123911"><ele>41.75</ele></trkpt>
   <trkpt lat="52.43085" lon="13.124069"><ele>41.75</ele></trkpt>
   <trkpt lat="52.430818" lon="13.124176"><ele>41.5</ele></trkpt>
   <trkpt lat="52.430819" lon="13.124209"><ele>41.25</ele></trkpt>
   <trkpt lat="52.430825" lon="13.124312"><ele>40.75</ele></trkpt>
   <trkpt lat="52.430922" lon="13.124755"><ele>40</ele></trkpt>
   <trkpt lat="52.431008" lon="13.124959"><ele>40.25</ele></trkpt>
   <trkpt lat="52.431074" lon="13.125273"><ele>40.5</ele></trkpt>
   <trkpt lat="52.431104" lon="13.125445"><ele>40.25</ele></trkpt>
   <trkpt lat="52.431112" lon="13.125596"><ele>39.75</ele></trkpt>
   <trkpt lat="52.431106" lon="13.125728"><ele>39.25</ele></trkpt>
   <trkpt lat="52.431121" lon="13.1258"><ele>39</ele></trkpt>
   <trkpt lat="52.431253" lon="13.126058"><ele>39.5</ele></trkpt>
   <trkpt lat="52.431318" lon="13.126298"><ele>39.25</ele></trkpt>
   <trkpt lat="52.431354" lon="13.126357"><ele>39.5</ele></trkpt>
   <trkpt lat="52.43139" lon="13.126415"><ele>39.75</ele></trkpt>
   <trkpt lat="52.431586" lon="13.126675"><ele>40.25</ele></trkpt>
   <trkpt lat="52.431681" lon="13.126822"><ele>40.5</ele></trkpt>
   <trkpt lat="52.43176" lon="13.126952"><ele>40.5</ele></trkpt>
   <trkpt lat="52.431854" lon="13.127133"><ele>40.25</ele></trkpt>
   <trkpt lat="52.432024" lon="13.127533"><ele>40.25</ele></trkpt>
   <trkpt lat="52.432084" lon="13.127709"><ele>40.5</ele></trkpt>
   <trkpt lat="52.432126" lon="13.127856"><ele>40.75</ele></trkpt>
   <trkpt lat="52.432161" lon="13.128009"><ele>40.5</ele></trkpt>
   <trkpt lat="52.432192" lon="13.12824"><ele>40.75</ele></trkpt>
   <trkpt lat="52.432245" lon="13.128765"><ele>41</ele></trkpt>
   <trkpt lat="52.432265" lon="13.129065"><ele>41</ele></trkpt>
   <trkpt lat="52.432293" lon="13.129245"><ele>40.75</ele></trkpt>
   <trkpt lat="52.432358" lon="13.129531"><ele>40</ele></trkpt>
   <trkpt lat="52.432429" lon="13.129807"><ele>39.75</ele></trkpt>
   <trkpt lat="52.432514" lon="13.130082"><ele>40</ele></trkpt>
   <trkpt lat="52.432762" lon="13.130745"><ele>39.75</ele></trkpt>
   <trkpt lat="52.432851" lon="13.130937"><ele>39</ele></trkpt>
   <trkpt lat="52.433026" lon="13.131195"><ele>38.75</ele></trkpt>
   <trkpt lat="52.433043" lon="13.13132"><ele>38.75</ele></trkpt>
   <trkpt lat="52.433133" lon="13.131768"><ele>38.25</ele></trkpt>
   <trkpt lat="52.433163" lon="13.131993"><ele>37.75</ele></trkpt>
   <trkpt lat="52.433182" lon="13.13216"><ele>37.5</ele></trkpt>
   <trkpt lat="52.433202" lon="13.132534"><ele>35.75</ele></trkpt>
   <trkpt lat="52.433192" lon="13.132978"><ele>33.75</ele></trkpt>
   <trkpt lat="52.433148" lon="13.133426"><ele>31.5</ele></trkpt>
   <trkpt lat="52.433132" lon="13.133683"><ele>31.25</ele></trkpt>
   <trkpt lat="52.433124" lon="13.134016"><ele>30.25</ele></trkpt>
   <trkpt lat="52.433129" lon="13.134173"><ele>30</ele></trkpt>
   <trkpt lat="52.433135" lon="13.134251"><ele>30</ele></trkpt>
   <trkpt lat="52.433147" lon="13.134306"><ele>30</ele></trkpt>
   <trkpt lat="52.433166" lon="13.134357"><ele>30.25</ele></trkpt>
   <trkpt lat="52.433196" lon="13.134405"><ele>30.25</ele></trkpt>
   <trkpt lat="52.433294" lon="13.134499"><ele>30.5</ele></trkpt>
   <trkpt lat="52.433324" lon="13.134527"><ele>30.5</ele></trkpt>
   <trkpt lat="52.433357" lon="13.134548"><ele>30.5</ele></trkpt>
   <trkpt lat="52.433395" lon="13.134552"><ele>30.5</ele></trkpt>
   <trkpt lat="52.433426" lon="13.134543"><ele>30.75</ele></trkpt>
   <trkpt lat="52.433469" lon="13.134522"><ele>30.75</ele></trkpt>
   <trkpt lat="52.433529" lon="13.134466"><ele>30.75</ele></trkpt>
   <trkpt lat="52.433568" lon="13.134412"><ele>31</ele></trkpt>
   <trkpt lat="52.433691" lon="13.134266"><ele>31.75</ele></trkpt>
   <trkpt lat="52.433733" lon="13.134235"><ele>32</ele></trkpt>
   <trkpt lat="52.433808" lon="13.134223"><ele>32.5</ele></trkpt>
   <trkpt lat="52.434268" lon="13.134452"><ele>31.5</ele></trkpt>
   <trkpt lat="52.434643" lon="13.134627"><ele>32.75</ele></trkpt>
   <trkpt lat="52.434881" lon="13.134727"><ele>33.5</ele></trkpt>
   <trkpt lat="52.435622" lon="13.135002"><ele>32.5</ele></trkpt>
   <trkpt lat="52.435724" lon="13.135034"><ele>32</ele></trkpt>
   <trkpt lat="52.435814" lon="13.135051"><ele>31.75</ele></trkpt>
   <trkpt lat="52.436051" lon="13.135035"><ele>31</ele></trkpt>
   <trkpt lat="52.436198" lon="13.134983"><ele>31.5</ele></trkpt>
   <trkpt lat="52.436313" lon="13.134903"><ele>33</ele></trkpt>
   <trkpt lat="52.436443" lon="13.134772"><ele>34.25</ele></trkpt>
   <trkpt lat="52.436611" lon="13.134647"><ele>33.5</ele></trkpt>
   <trkpt lat="52.436776" lon="13.13458"><ele>33</ele></trkpt>
   <trkpt lat="52.437137" lon="13.134499"><ele>32</ele></trkpt>
   <trkpt lat="52.43719" lon="13.134468"><ele>32</ele></trkpt>
   <trkpt lat="52.437245" lon="13.134406"><ele>32</ele></trkpt>
   <trkpt lat="52.437293" lon="13.134288"><ele>32</ele></trkpt>
   <trkpt lat="52.437476" lon="13.134305"><ele>31</ele></trkpt>
   <trkpt lat="52.437625" lon="13.134302"><ele>30.5</ele></trkpt>
   <trkpt lat="52.437723" lon="13.134267"><ele>30</ele></trkpt>
   <trkpt lat="52.437815" lon="13.134204"><ele>30</ele></trkpt>
   <trkpt lat="52.437854" lon="13.134181"><ele>30.25</ele></trkpt>
   <trkpt lat="52.438236" lon="13.134003"><ele>30.75</ele></trkpt>
   <trkpt lat="52.43832" lon="13.133949"><ele>31.5</ele></trkpt>
   <trkpt lat="52.438401" lon="13.133886"><ele>31.75</ele></trkpt>
   <trkpt lat="52.438459" lon="13.133824"><ele>31.5</ele></trkpt>
   <trkpt lat="52.438521" lon="13.133737"><ele>31.25</ele></trkpt>
   <trkpt lat="52.43857" lon="13.133642"><ele>31</ele></trkpt>
   <trkpt lat="52.438612" lon="13.13354"><ele>31.25</ele></trkpt>
   <trkpt lat="52.438658" lon="13.133395"><ele>31.5</ele></trkpt>
   <trkpt lat="52.438789" lon="13.132726"><ele>31.25</ele></trkpt>
   <trkpt lat="52.438841" lon="13.132512"><ele>31</ele></trkpt>
   <trkpt lat="52.438886" lon="13.13237"><ele>31.25</ele></trkpt>
   <trkpt lat="52.438954" lon="13.132193"><ele>31.75</ele></trkpt>
   <trkpt lat="52.439032" lon="13.132042"><ele>31.75</ele></trkpt>
   <trkpt lat="52.439112" lon="13.131914"><ele>32</ele></trkpt>
   <trkpt lat="52.439194" lon="13.131793"><ele>31.75</ele></trkpt>
   <trkpt lat="52.439262" lon="13.131735"><ele>31.5</ele></trkpt>
   <trkpt lat="52.439317" lon="13.131674"><ele>31.25</ele></trkpt>
   <trkpt lat="52.439386" lon="13.131567"><ele>31.25</ele></trkpt>
   <trkpt lat="52.439543" lon="13.131295"><ele>31.5</ele></trkpt>
   <trkpt lat="52.439568" lon="13.131198"><ele>31.5</ele></trkpt>
   <trkpt lat="52.439554" lon="13.131082"><ele>31.5</ele></trkpt>
   <trkpt lat="52.439525" lon="13.130973"><ele>31.75</ele></trkpt>
   <trkpt lat="52.43947" lon="13.130912"><ele>31.75</ele></trkpt>
   <trkpt lat="52.439384" lon="13.130874"><ele>32</ele></trkpt>
   <trkpt lat="52.439298" lon="13.130867"><ele>32</ele></trkpt>
   <trkpt lat="52.439154" lon="13.130885"><ele>31.75</ele></trkpt>
   <trkpt lat="52.439024" lon="13.130745"><ele>31.25</ele></trkpt>
   <trkpt lat="52.438961" lon="13.130647"><ele>31.25</ele></trkpt>
   <trkpt lat="52.438892" lon="13.130444"><ele>31.25</ele></trkpt>
   <trkpt lat="52.438654" lon="13.129857"><ele>31</ele></trkpt>
   <trkpt lat="52.438595" lon="13.129784"><ele>30.75</ele></trkpt>
   <trkpt lat="52.43853" lon="13.129733"><ele>30.75</ele></trkpt>
   <trkpt lat="52.438453" lon="13.129703"><ele>30.75</ele></trkpt>
   <trkpt lat="52.438349" lon="13.129689"><ele>30.75</ele></trkpt>
   <trkpt lat="52.437805" lon="13.12981"><ele>30.5</ele></trkpt>
   <trkpt lat="52.437376" lon="13.129862"><ele>30.25</ele></trkpt>
   <trkpt lat="52.437043" lon="13.129809"><ele>31.25</ele></trkpt>
   <trkpt lat="52.436636" lon="13.129672"><ele>32.5</ele></trkpt>
   <trkpt lat="52.436374" lon="13.129015"><ele>32</ele></trkpt>
   <trkpt lat="52.436175" lon="13.128646"><ele>31.75</ele></trkpt>
   <trkpt lat="52.435972" lon="13.128338"><ele>33</ele></trkpt>
   <trkpt lat="52.435788" lon="13.127969"><ele>33.25</ele></trkpt>
   <trkpt lat="52.43569" lon="13.127715"><ele>32.75</ele></trkpt>
   <trkpt lat="52.435616" lon="13.127587"><ele>33.25</ele></trkpt>
   <trkpt lat="52.435386" lon="13.127276"><ele>33.25</ele></trkpt>
   <trkpt lat="52.435259" lon="13.127051"><ele>34</ele></trkpt>
   <trkpt lat="52.435153" lon="13.126758"><ele>33.25</ele></trkpt>
   <trkpt lat="52.435102" lon="13.126526"><ele>33</ele></trkpt>
   <trkpt lat="52.435056" lon="13.126248"><ele>33.75</ele></trkpt>
   <trkpt lat="52.434957" lon="13.125719"><ele>33.25</ele></trkpt>
   <trkpt lat="52.434872" lon="13.12544"><ele>32.5</ele></trkpt>
   <trkpt lat="52.434671" lon="13.124979"><ele>34</ele></trkpt>
   <trkpt lat="52.434606" lon="13.124808"><ele>34</ele></trkpt>
   <trkpt lat="52.434539" lon="13.1246"><ele>34</ele></trkpt>
   <trkpt lat="52.434256" lon="13.123634"><ele>33.25</ele></trkpt>
   <trkpt lat="52.434009" lon="13.123025"><ele>33</ele></trkpt>
   <trkpt lat="52.433892" lon="13.122803"><ele>34</ele></trkpt>
   <trkpt lat="52.433744" lon="13.12258"><ele>34</ele></trkpt>
   <trkpt lat="52.433655" lon="13.122444"><ele>34</ele></trkpt>
   <trkpt lat="52.433517" lon="13.122218"><ele>34.75</ele></trkpt>
   <trkpt lat="52.433328" lon="13.121833"><ele>33.75</ele></trkpt>
   <trkpt lat="52.433266" lon="13.121746"><ele>33.25</ele></trkpt>
   <trkpt lat="52.433204" lon="13.121695"><ele>33.5</ele></trkpt>
   <trkpt lat="52.433119" lon="13.121655"><ele>34</ele></trkpt>
   <trkpt lat="52.432816" lon="13.121537"><ele>35</ele></trkpt>
   <trkpt lat="52.432416" lon="13.121312"><ele>35.25</ele></trkpt>
   <trkpt lat="52.432254" lon="13.121223"><ele>35.75</ele></trkpt>
   <trkpt lat="52.432177" lon="13.121167"><ele>36</ele></trkpt>
   <trkpt lat="52.431778" lon="13.120809"><ele>35.75</ele></trkpt>
   <trkpt lat="52.431698" lon="13.120737"><ele>35.5</ele></trkpt>
   <trkpt lat="52.431426" lon="13.120282"><ele>35.25</ele></trkpt>
   <trkpt lat="52.431102" lon="13.119855"><ele>36</ele></trkpt>
   <trkpt lat="52.430929" lon="13.119599"><ele>35.25</ele></trkpt>
   <trkpt lat="52.430855" lon="13.119514"><ele>35.75</ele></trkpt>
   <trkpt lat="52.430774" lon="13.119453"><ele>36</ele></trkpt>
   <trkpt lat="52.430611" lon="13.119417"><ele>35.25</ele></trkpt>
   <trkpt lat="52.430533" lon="13.11941"><ele>35.25</ele></trkpt>
   <trkpt lat="52.430466" lon="13.119404"><ele>35.25</ele></trkpt>
   <trkpt lat="52.430203" lon="13.119407"><ele>35</ele></trkpt>
   <trkpt lat="52.429971" lon="13.119508"><ele>34.75</ele></trkpt>
   <trkpt lat="52.429956" lon="13.11956"><ele>34.5</ele></trkpt>
   <trkpt lat="52.429971" lon="13.119658"><ele>35.25</ele></trkpt>
   <trkpt lat="52.430011" lon="13.119745"><ele>35.75</ele></trkpt>
   <trkpt lat="52.430081" lon="13.119815"><ele>35.75</ele></trkpt>
   <trkpt lat="52.430235" lon="13.120084"><ele>35.5</ele></trkpt>
   <trkpt lat="52.430062" lon="13.120379"><ele>32.5</ele></trkpt>
   <trkpt lat="52.43004" lon="13.120416"><ele>32</ele></trkpt>
   <trkpt lat="52.43016" lon="13.120744"><ele>31.75</ele></trkpt>
   <trkpt lat="52.430123" lon="13.120764"><ele>31.25</ele></trkpt>
   <trkpt lat="52.430036" lon="13.120804"><ele>30.25</ele></trkpt>
   <trkpt lat="52.429391" lon="13.121835"><ele>29.5</ele></trkpt>
   <trkpt lat="52.429315" lon="13.12203"><ele>29.75</ele></trkpt>
   <trkpt lat="52.429261" lon="13.122161"><ele>30.25</ele></trkpt>
   <trkpt lat="52.429233" lon="13.122231"><ele>30.75</ele></trkpt>
   <trkpt lat="52.429168" lon="13.122335"><ele>30.75</ele></trkpt>
   <trkpt lat="52.42912" lon="13.122411"><ele>31</ele></trkpt>
   <trkpt lat="52.428996" lon="13.122547"><ele>31.25</ele></trkpt>
   <trkpt lat="52.428879" lon="13.122591"><ele>31.5</ele></trkpt>
   <trkpt lat="52.428734" lon="13.122759"><ele>32</ele></trkpt>
   <trkpt lat="52.428674" lon="13.122852"><ele>32.25</ele></trkpt>
   <trkpt lat="52.428543" lon="13.123105"><ele>33</ele></trkpt>
   <trkpt lat="52.428445" lon="13.123319"><ele>33.25</ele></trkpt>
   <trkpt lat="52.42841" lon="13.123467"><ele>33.75</ele></trkpt>
   <trkpt lat="52.42839" lon="13.12355"><ele>34</ele></trkpt>
   <trkpt lat="52.428344" lon="13.123748"><ele>35.25</ele></trkpt>
   <trkpt lat="52.428337" lon="13.123801"><ele>35.5</ele></trkpt>
   <trkpt lat="52.428299" lon="13.123908"><ele>36</ele></trkpt>
   <trkpt lat="52.428267" lon="13.123996"><ele>36.25</ele></trkpt>
   <trkpt lat="52.428152" lon="13.124216"><ele>37.25</ele></trkpt>
   <trkpt lat="52.428331" lon="13.124446"><ele>36</ele></trkpt>
   <trkpt lat="52.428427" lon="13.124798"><ele>34.5</ele></trkpt>
   <trkpt lat="52.428493" lon="13.12519"><ele>34.5</ele></trkpt>
   <trkpt lat="52.428531" lon="13.125648"><ele>33.5</ele></trkpt>
   <trkpt lat="52.42849" lon="13.126105"><ele>34.25</ele></trkpt>
   <trkpt lat="52.428467" lon="13.126643"><ele>34.5</ele></trkpt>
   <trkpt lat="52.428509" lon="13.126964"><ele>34</ele></trkpt>
   <trkpt lat="52.428569" lon="13.12731"><ele>32.5</ele></trkpt>
   <trkpt lat="52.428652" lon="13.12757"><ele>31.75</ele></trkpt>
   <trkpt lat="52.428684" lon="13.127734"><ele>32</ele></trkpt>
   <trkpt lat="52.428701" lon="13.12791"><ele>32.5</ele></trkpt>
   <trkpt lat="52.428766" lon="13.128196"><ele>32.75</ele></trkpt>
   <trkpt lat="52.428859" lon="13.128508"><ele>32</ele></trkpt>
   <trkpt lat="52.429228" lon="13.129259"><ele>31.25</ele></trkpt>
   <trkpt lat="52.429298" lon="13.12948"><ele>31.5</ele></trkpt>
   <trkpt lat="52.429313" lon="13.129798"><ele>32.25</ele></trkpt>
   <trkpt lat="52.42927" lon="13.130116"><ele>31.75</ele></trkpt>
   <trkpt lat="52.429267" lon="13.130393"><ele>30.5</ele></trkpt>
   <trkpt lat="52.429281" lon="13.130613"><ele>30</ele></trkpt>
   <trkpt lat="52.429307" lon="13.131172"><ele>30.25</ele></trkpt>
   <trkpt lat="52.429327" lon="13.131761"><ele>31</ele></trkpt>
   <trkpt lat="52.42935" lon="13.132011"><ele>31.25</ele></trkpt>
   <trkpt lat="52.429371" lon="13.132365"><ele>31.25</ele></trkpt>
   <trkpt lat="52.429446" lon="13.133012"><ele>30.75</ele></trkpt>
   <trkpt lat="52.429551" lon="13.133504"><ele>33.25</ele></trkpt>
   <trkpt lat="52.429737" lon="13.134135"><ele>31.5</ele></trkpt>
   <trkpt lat="52.430073" lon="13.135081"><ele>32.25</ele></trkpt>
   <trkpt lat="52.430305" lon="13.135748"><ele>31.75</ele></trkpt>
   <trkpt lat="52.430615" lon="13.136687"><ele>31.75</ele></trkpt>
   <trkpt lat="52.430789" lon="13.13712"><ele>32.25</ele></trkpt>
   <trkpt lat="52.431122" lon="13.137814"><ele>32</ele></trkpt>
   <trkpt lat="52.431508" lon="13.138323"><ele>31.5</ele></trkpt>
   <trkpt lat="52.431681" lon="13.138566"><ele>31.5</ele></trkpt>
   <trkpt lat="52.431817" lon="13.138784"><ele>33</ele></trkpt>
   <trkpt lat="52.431929" lon="13.139021"><ele>32.75</ele></trkpt>
   <trkpt lat="52.431967" lon="13.139147"><ele>32.5</ele></trkpt>
   <trkpt lat="52.43199" lon="13.139313"><ele>32.75</ele></trkpt>
   <trkpt lat="52.431998" lon="13.139517"><ele>33.25</ele></trkpt>
   <trkpt lat="52.432" lon="13.13992"><ele>34</ele></trkpt>
   <trkpt lat="52.432011" lon="13.140421"><ele>33.25</ele></trkpt>
   <trkpt lat="52.432032" lon="13.141126"><ele>31.5</ele></trkpt>
   <trkpt lat="52.432304" lon="13.141785"><ele>30.5</ele></trkpt>
   <trkpt lat="52.432365" lon="13.141917"><ele>30.25</ele></trkpt>
   <trkpt lat="52.432453" lon="13.142114"><ele>30.5</ele></trkpt>
   <trkpt lat="52.432643" lon="13.142481"><ele>30.25</ele></trkpt>
   <trkpt lat="52.432784" lon="13.142644"><ele>30.5</ele></trkpt>
   <trkpt lat="52.432953" lon="13.14279"><ele>31</ele></trkpt>
   <trkpt lat="52.433125" lon="13.142944"><ele>31</ele></trkpt>
   <trkpt lat="52.433475" lon="13.143157"><ele>31.75</ele></trkpt>
   <trkpt lat="52.433963" lon="13.143423"><ele>32</ele></trkpt>
   <trkpt lat="52.434303" lon="13.143811"><ele>32.5</ele></trkpt>
   <trkpt lat="52.43461" lon="13.144292"><ele>32.25</ele></trkpt>
   <trkpt lat="52.435034" lon="13.144862"><ele>32.25</ele></trkpt>
   <trkpt lat="52.435423" lon="13.145277"><ele>32.25</ele></trkpt>
   <trkpt lat="52.435928" lon="13.14573"><ele>33</ele></trkpt>
   <trkpt lat="52.436096" lon="13.145933"><ele>31.75</ele></trkpt>
   <trkpt lat="52.436493" lon="13.146574"><ele>33.5</ele></trkpt>
   <trkpt lat="52.436952" lon="13.147342"><ele>31.25</ele></trkpt>
   <trkpt lat="52.437277" lon="13.14795"><ele>32.25</ele></trkpt>
   <trkpt lat="52.437645" lon="13.148568"><ele>32.5</ele></trkpt>
   <trkpt lat="52.438067" lon="13.1494"><ele>31.5</ele></trkpt>
   <trkpt lat="52.43838" lon="13.14996"><ele>31.25</ele></trkpt>
   <trkpt lat="52.438859" lon="13.150785"><ele>31.75</ele></trkpt>
   <trkpt lat="52.439204" lon="13.15186"><ele>32</ele></trkpt>
   <trkpt lat="52.439521" lon="13.153072"><ele>30.75</ele></trkpt>
   <trkpt lat="52.439565" lon="13.153437"><ele>31</ele></trkpt>
   <trkpt lat="52.439562" lon="13.153551"><ele>31</ele></trkpt>
   <trkpt lat="52.439562" lon="13.153588"><ele>31</ele></trkpt>
   <trkpt lat="52.439559" lon="13.15375"><ele>31</ele></trkpt>
   <trkpt lat="52.439539" lon="13.154138"><ele>30.5</ele></trkpt>
   <trkpt lat="52.439473" lon="13.154496"><ele>30.75</ele></trkpt>
   <trkpt lat="52.439447" lon="13.154643"><ele>30.75</ele></trkpt>
   <trkpt lat="52.439398" lon="13.155048"><ele>30.25</ele></trkpt>
   <trkpt lat="52.439354" lon="13.15613"><ele>32.5</ele></trkpt>
   <trkpt lat="52.439316" lon="13.156639"><ele>32.25</ele></trkpt>
   <trkpt lat="52.439273" lon="13.156946"><ele>32.25</ele></trkpt>
   <trkpt lat="52.439213" lon="13.157099"><ele>31.75</ele></trkpt>
   <trkpt lat="52.439049" lon="13.157369"><ele>31.25</ele></trkpt>
   <trkpt lat="52.438932" lon="13.157523"><ele>30.75</ele></trkpt>
   <trkpt lat="52.438857" lon="13.157672"><ele>30.75</ele></trkpt>
   <trkpt lat="52.438651" lon="13.157982"><ele>31.25</ele></trkpt>
   <trkpt lat="52.438449" lon="13.158258"><ele>31.75</ele></trkpt>
   <trkpt lat="52.438352" lon="13.158413"><ele>31.25</ele></trkpt>
   <trkpt lat="52.437915" lon="13.159287"><ele>31.25</ele></trkpt>
   <trkpt lat="52.437631" lon="13.15962"><ele>32</ele></trkpt>
   <trkpt lat="52.437224" lon="13.160194"><ele>30.5</ele></trkpt>
   <trkpt lat="52.437139" lon="13.160322"><ele>30.25</ele></trkpt>
   <trkpt lat="52.437067" lon="13.160435"><ele>30.5</ele></trkpt>
   <trkpt lat="52.436668" lon="13.161075"><ele>30</ele></trkpt>
   <trkpt lat="52.436129" lon="13.162451"><ele>31</ele></trkpt>
   <trkpt lat="52.436088" lon="13.162543"><ele>31</ele></trkpt>
   <trkpt lat="52.435986" lon="13.162567"><ele>32.75</ele></trkpt>
   <trkpt lat="52.435811" lon="13.162606"><ele>35.25</ele></trkpt>
   <trkpt lat="52.43559" lon="13.162555"><ele>36</ele></trkpt>
   <trkpt lat="52.435377" lon="13.162487"><ele>36.5</ele></trkpt>
   <trkpt lat="52.435219" lon="13.162368"><ele>36.5</ele></trkpt>
   <trkpt lat="52.435113" lon="13.162213"><ele>36</ele></trkpt>
   <trkpt lat="52.435073" lon="13.162195"><ele>36</ele></trkpt>
   <trkpt lat="52.434661" lon="13.1627"><ele>37</ele></trkpt>
   <trkpt lat="52.434481" lon="13.162867"><ele>36.75</ele></trkpt>
   <trkpt lat="52.434279" lon="13.163035"><ele>37.25</ele></trkpt>
   <trkpt lat="52.43406" lon="13.163149"><ele>36.5</ele></trkpt>
   <trkpt lat="52.433968" lon="13.163197"><ele>36.5</ele></trkpt>
   <trkpt lat="52.433676" lon="13.163381"><ele>37</ele></trkpt>
   <trkpt lat="52.433498" lon="13.163573"><ele>37.5</ele></trkpt>
   <trkpt lat="52.433475" lon="13.163606"><ele>37.5</ele></trkpt>
   <trkpt lat="52.433235" lon="13.163961"><ele>37</ele></trkpt>
   <trkpt lat="52.433204" lon="13.163996"><ele>37</ele></trkpt>
   <trkpt lat="52.433173" lon="13.163936"><ele>37</ele></trkpt>
   <trkpt lat="52.433106" lon="13.164012"><ele>36.75</ele></trkpt>
   <trkpt lat="52.433028" lon="13.164096"><ele>37</ele></trkpt>
   <trkpt lat="52.432805" lon="13.164283"><ele>37</ele></trkpt>
   <trkpt lat="52.43256" lon="13.164448"><ele>37</ele></trkpt>
   <trkpt lat="52.432032" lon="13.164791"><ele>36</ele></trkpt>
   <trkpt lat="52.431924" lon="13.164858"><ele>36</ele></trkpt>
   <trkpt lat="52.431741" lon="13.164948"><ele>35.5</ele></trkpt>
   <trkpt lat="52.431586" lon="13.164994"><ele>35</ele></trkpt>
   <trkpt lat="52.431419" lon="13.165019"><ele>35</ele></trkpt>
   <trkpt lat="52.431201" lon="13.16501"><ele>35</ele></trkpt>
   <trkpt lat="52.431062" lon="13.16498"><ele>35</ele></trkpt>
   <trkpt lat="52.430863" lon="13.164905"><ele>35</ele></trkpt>
   <trkpt lat="52.430714" lon="13.164878"><ele>34.75</ele></trkpt>
   <trkpt lat="52.430597" lon="13.164875"><ele>34.5</ele></trkpt>
   <trkpt lat="52.430399" lon="13.164826"><ele>33.5</ele></trkpt>
   <trkpt lat="52.43024" lon="13.16476"><ele>32.75</ele></trkpt>
   <trkpt lat="52.430136" lon="13.164716"><ele>33</ele></trkpt>
   <trkpt lat="52.42993" lon="13.16461"><ele>33</ele></trkpt>
   <trkpt lat="52.429783" lon="13.16453"><ele>33.5</ele></trkpt>
   <trkpt lat="52.429657" lon="13.164427"><ele>34</ele></trkpt>
   <trkpt lat="52.429339" lon="13.164109"><ele>35</ele></trkpt>
   <trkpt lat="52.429308" lon="13.164078"><ele>35.25</ele></trkpt>
   <trkpt lat="52.428968" lon="13.163678"><ele>35.75</ele></trkpt>
   <trkpt lat="52.428744" lon="13.163415"><ele>34.75</ele></trkpt>
   <trkpt lat="52.428616" lon="13.163266"><ele>34</ele></trkpt>
   <trkpt lat="52.428296" lon="13.16289"><ele>32</ele></trkpt>
   <trkpt lat="52.428046" lon="13.162631"><ele>33.5</ele></trkpt>
   <trkpt lat="52.427766" lon="13.16234"><ele>34.5</ele></trkpt>
   <trkpt lat="52.427459" lon="13.162081"><ele>34.25</ele></trkpt>
   <trkpt lat="52.427169" lon="13.161871"><ele>33.75</ele></trkpt>
   <trkpt lat="52.426646" lon="13.161615"><ele>32</ele></trkpt>
   <trkpt lat="52.426502" lon="13.161561"><ele>32</ele></trkpt>
   <trkpt lat="52.426145" lon="13.161428"><ele>31</ele></trkpt>
   <trkpt lat="52.42608" lon="13.161403"><ele>31</ele></trkpt>
   <trkpt lat="52.425895" lon="13.161333"><ele>31</ele></trkpt>
   <trkpt lat="52.425657" lon="13.161279"><ele>31</ele></trkpt>
   <trkpt lat="52.425461" lon="13.161261"><ele>31</ele></trkpt>
   <trkpt lat="52.425291" lon="13.161265"><ele>31.25</ele></trkpt>
   <trkpt lat="52.425093" lon="13.161292"><ele>31.25</ele></trkpt>
   <trkpt lat="52.424895" lon="13.161344"><ele>31</ele></trkpt>
   <trkpt lat="52.424603" lon="13.161459"><ele>31.25</ele></trkpt>
   <trkpt lat="52.424513" lon="13.161494"><ele>31.25</ele></trkpt>
   <trkpt lat="52.424462" lon="13.161526"><ele>31.25</ele></trkpt>
   <trkpt lat="52.42413" lon="13.161735"><ele>31</ele></trkpt>
   <trkpt lat="52.42397" lon="13.161851"><ele>31.25</ele></trkpt>
   <trkpt lat="52.423817" lon="13.161976"><ele>31</ele></trkpt>
   <trkpt lat="52.423628" lon="13.162157"><ele>31</ele></trkpt>
   <trkpt lat="52.423427" lon="13.162382"><ele>31.75</ele></trkpt>
   <trkpt lat="52.423267" lon="13.162592"><ele>32</ele></trkpt>
   <trkpt lat="52.42311" lon="13.162827"><ele>32.25</ele></trkpt>
   <trkpt lat="52.422863" lon="13.163318"><ele>32.5</ele></trkpt>
   <trkpt lat="52.422714" lon="13.163613"><ele>32.25</ele></trkpt>
   <trkpt lat="52.422161" lon="13.164713"><ele>36</ele></trkpt>
   <trkpt lat="52.422048" lon="13.164899"><ele>36.5</ele></trkpt>
   <trkpt lat="52.421905" lon="13.165076"><ele>38.25</ele></trkpt>
   <trkpt lat="52.421803" lon="13.165173"><ele>39.25</ele></trkpt>
   <trkpt lat="52.421434" lon="13.165451"><ele>41.75</ele></trkpt>
   <trkpt lat="52.421384" lon="13.165468"><ele>42.25</ele></trkpt>
   <trkpt lat="52.421379" lon="13.165617"><ele>41.75</ele></trkpt>
   <trkpt lat="52.421359" lon="13.165762"><ele>41.25</ele></trkpt>
   <trkpt lat="52.421296" lon="13.166091"><ele>41</ele></trkpt>
   <trkpt lat="52.421204" lon="13.166368"><ele>41</ele></trkpt>
   <trkpt lat="52.421085" lon="13.166618"><ele>41</ele></trkpt>
   <trkpt lat="52.421052" lon="13.16667"><ele>41</ele></trkpt>
   <trkpt lat="52.420938" lon="13.166849"><ele>40.75</ele></trkpt>
   <trkpt lat="52.420828" lon="13.166965"><ele>41</ele></trkpt>
   <trkpt lat="52.420763" lon="13.16702"><ele>41</ele></trkpt>
   <trkpt lat="52.420679" lon="13.167091"><ele>41.25</ele></trkpt>
   <trkpt lat="52.420605" lon="13.167128"><ele>41.25</ele></trkpt>
   <trkpt lat="52.420613" lon="13.167181"><ele>41</ele></trkpt>
   <trkpt lat="52.420631" lon="13.167298"><ele>40.75</ele></trkpt>
   <trkpt lat="52.420705" lon="13.168001"><ele>40.5</ele></trkpt>
   <trkpt lat="52.420723" lon="13.168178"><ele>40.25</ele></trkpt>
   <trkpt lat="52.42073" lon="13.168267"><ele>40</ele></trkpt>
   <trkpt lat="52.420771" lon="13.168641"><ele>39</ele></trkpt>
   <trkpt lat="52.420934" lon="13.170243"><ele>35.5</ele></trkpt>
   <trkpt lat="52.420944" lon="13.170387"><ele>35</ele></trkpt>
   <trkpt lat="52.420954" lon="13.170696"><ele>34.75</ele></trkpt>
   <trkpt lat="52.420942" lon="13.171046"><ele>32.25</ele></trkpt>
   <trkpt lat="52.420897" lon="13.171866"><ele>32.5</ele></trkpt>
   <trkpt lat="52.420873" lon="13.172315"><ele>35.25</ele></trkpt>
   <trkpt lat="52.420845" lon="13.172533"><ele>35.75</ele></trkpt>
   <trkpt lat="52.420788" lon="13.172878"><ele>35.25</ele></trkpt>
   <trkpt lat="52.420697" lon="13.173307"><ele>33.5</ele></trkpt>
   <trkpt lat="52.420642" lon="13.173529"><ele>33.75</ele></trkpt>
   <trkpt lat="52.420392" lon="13.174415"><ele>34</ele></trkpt>
   <trkpt lat="52.420353" lon="13.174552"><ele>34.5</ele></trkpt>
   <trkpt lat="52.420248" lon="13.174894"><ele>35.75</ele></trkpt>
   <trkpt lat="52.420179" lon="13.175096"><ele>35.75</ele></trkpt>
   <trkpt lat="52.420213" lon="13.175128"><ele>35.75</ele></trkpt>
   <trkpt lat="52.42021" lon="13.175201"><ele>35.75</ele></trkpt>
   <trkpt lat="52.420221" lon="13.175274"><ele>35.75</ele></trkpt>
   <trkpt lat="52.420308" lon="13.175334"><ele>35.75</ele></trkpt>
   <trkpt lat="52.420463" lon="13.175388"><ele>35.75</ele></trkpt>
   <trkpt lat="52.420737" lon="13.175516"><ele>35.25</ele></trkpt>
   <trkpt lat="52.420906" lon="13.175636"><ele>34.5</ele></trkpt>
   <trkpt lat="52.420958" lon="13.175716"><ele>34</ele></trkpt>
   <trkpt lat="52.421013" lon="13.175904"><ele>34.5</ele></trkpt>
   <trkpt lat="52.421037" lon="13.176035"><ele>35.75</ele></trkpt>
   <trkpt lat="52.421101" lon="13.176309"><ele>38</ele></trkpt>
   <trkpt lat="52.42114" lon="13.176523"><ele>38.25</ele></trkpt>
   <trkpt lat="52.421304" lon="13.17698"><ele>39.75</ele></trkpt>
   <trkpt lat="52.421612" lon="13.177181"><ele>42.5</ele></trkpt>
   <trkpt lat="52.421742" lon="13.177266"><ele>42.75</ele></trkpt>
   <trkpt lat="52.421832" lon="13.17734"><ele>42.75</ele></trkpt>
   <trkpt lat="52.421789" lon="13.177476"><ele>44.5</ele></trkpt>
   <trkpt lat="52.42175" lon="13.177671"><ele>43.75</ele></trkpt>
   <trkpt lat="52.421728" lon="13.177853"><ele>43.25</ele></trkpt>
   <trkpt lat="52.421722" lon="13.177986"><ele>43.25</ele></trkpt>
   <trkpt lat="52.421698" lon="13.178106"><ele>43</ele></trkpt>
   <trkpt lat="52.42166" lon="13.178215"><ele>42.25</ele></trkpt>
   <trkpt lat="52.421635" lon="13.178262"><ele>42</ele></trkpt>
   <trkpt lat="52.421598" lon="13.178335"><ele>41.75</ele></trkpt>
   <trkpt lat="52.421624" lon="13.178438"><ele>41.75</ele></trkpt>
   <trkpt lat="52.421677" lon="13.178646"><ele>42</ele></trkpt>
   <trkpt lat="52.421752" lon="13.178934"><ele>42.25</ele></trkpt>
   <trkpt lat="52.421797" lon="13.178897"><ele>42.25</ele></trkpt>
   <trkpt lat="52.421805" lon="13.178891"><ele>42.25</ele></trkpt>
   <trkpt lat="52.421977" lon="13.179394"><ele>43</ele></trkpt>
   <trkpt lat="52.422011" lon="13.179536"><ele>43.25</ele></trkpt>
   <trkpt lat="52.422036" lon="13.179573"><ele>43.5</ele></trkpt>
   <trkpt lat="52.422097" lon="13.179587"><ele>43.75</ele></trkpt>
   <trkpt lat="52.42244" lon="13.179638"><ele>44.25</ele></trkpt>
   <trkpt lat="52.422563" lon="13.179671"><ele>44.25</ele></trkpt>
   <trkpt lat="52.423547" lon="13.180521"><ele>41.25</ele></trkpt>
   <trkpt lat="52.424333" lon="13.181204"><ele>40</ele></trkpt>
   <trkpt lat="52.424564" lon="13.181396"><ele>40.25</ele></trkpt>
   <trkpt lat="52.425535" lon="13.182264"><ele>41</ele></trkpt>
   <trkpt lat="52.426025" lon="13.18279"><ele>42</ele></trkpt>
   <trkpt lat="52.426941" lon="13.183792"><ele>42</ele></trkpt>
   <trkpt lat="52.427352" lon="13.184249"><ele>42</ele></trkpt>
   <trkpt lat="52.427404" lon="13.18429"><ele>42</ele></trkpt>
   <trkpt lat="52.427571" lon="13.184338"><ele>41.75</ele></trkpt>
   <trkpt lat="52.427607" lon="13.184406"><ele>41.75</ele></trkpt>
   <trkpt lat="52.427765" lon="13.184255"><ele>41.25</ele></trkpt>
   <trkpt lat="52.428046" lon="13.18406"><ele>37.5</ele></trkpt>
   <trkpt lat="52.42832" lon="13.183917"><ele>34</ele></trkpt>
   <trkpt lat="52.428393" lon="13.183934"><ele>33.75</ele></trkpt>
   <trkpt lat="52.428492" lon="13.183957"><ele>33.25</ele></trkpt>
   <trkpt lat="52.428514" lon="13.183962"><ele>33.25</ele></trkpt>
   <trkpt lat="52.428622" lon="13.183988"><ele>32.75</ele></trkpt>
   <trkpt lat="52.429138" lon="13.184259"><ele>32</ele></trkpt>
   <trkpt lat="52.428993" lon="13.184863"><ele>32</ele></trkpt>
   <trkpt lat="52.429266" lon="13.184812"><ele>32</ele></trkpt>
   <trkpt lat="52.429484" lon="13.184818"><ele>32</ele></trkpt>
   <trkpt lat="52.43038" lon="13.184971"><ele>32</ele></trkpt>
   <trkpt lat="52.430786" lon="13.185055"><ele>32</ele></trkpt>
   <trkpt lat="52.431029" lon="13.185138"><ele>32</ele></trkpt>
   <trkpt lat="52.431126" lon="13.185186"><ele>32</ele></trkpt>
   <trkpt lat="52.431456" lon="13.185441"><ele>32.75</ele></trkpt>
   <trkpt lat="52.431547" lon="13.185514"><ele>33</ele></trkpt>
   <trkpt lat="52.431742" lon="13.185768"><ele>33.5</ele></trkpt>
   <trkpt lat="52.432184" lon="13.186456"><ele>34.75</ele></trkpt>
   <trkpt lat="52.432224" lon="13.186476"><ele>35</ele></trkpt>
   <trkpt lat="52.432259" lon="13.186474"><ele>35.25</ele></trkpt>
   <trkpt lat="52.432399" lon="13.186237"><ele>36</ele></trkpt>
   <trkpt lat="52.432622" lon="13.185829"><ele>37.25</ele></trkpt>
   <trkpt lat="52.432551" lon="13.185752"><ele>36.5</ele></trkpt>
   <trkpt lat="52.432525" lon="13.18574"><ele>35.75</ele></trkpt>
  </trkseg>
 </trk>
</gpx>