<?xml version="1.0" encoding="UTF-8"?>
<!-- track-length = 7673 filtered ascend = 21 plain-ascend = 1 cost=9185 energy=0.0kwh time=1h 31m 33s -->
<gpx 
 xmlns="http://www.topografix.com/GPX/1/1" 
 xmlns:xsi="http://www.w3.org/2001/XMLSchema-instance" 
 xsi:schemaLocation="http://www.topografix.com/GPX/1/1 http://www.topografix.com/GPX/1/1/gpx.xsd" 
 version="1.1" 
 creator="BRouter-Web 0.18.1">
 <trk>
  <name>Wannsee (7.7km)</name>
  <trkseg>
   <trkpt lat="52.432594" lon="13.185798"><ele>36.75</ele></trkpt>
   <trkpt lat="52.432622" lon="13.185829"><ele>37.25</ele></trkpt>
   <trkpt lat="52.432399" lon="13.186237"><ele>36</ele></trkpt>
   <trkpt lat="52.432415" lon="13.186263"><ele>36.25</ele></trkpt>
   <trkpt lat="52.432201" lon="13.186676"><ele>34.75</ele></trkpt>
   <trkpt lat="52.432396" lon="13.186977"><ele>35.5</ele></trkpt>
   <trkpt lat="52.432602" lon="13.187292"><ele>36.5</ele></trkpt>
   <trkpt lat="52.432665" lon="13.187388"><ele>37</ele></trkpt>
   <trkpt lat="52.433131" lon="13.188104"><ele>39.75</ele></trkpt>
   <trkpt lat="52.433345" lon="13.188476"><ele>41</ele></trkpt>
   <trkpt lat="52.433666" lon="13.189109"><ele>42</ele></trkpt>
   <trkpt lat="52.433693" lon="13.189162"><ele>42</ele></trkpt>
   <trkpt lat="52.433711" lon="13.189198"><ele>41.75</ele></trkpt>
   <trkpt lat="52.433649" lon="13.189287"><ele>42</ele></trkpt>
   <trkpt lat="52.433625" lon="13.18932"><ele>42</ele></trkpt>
   <trkpt lat="52.433656" lon="13.189383"><ele>42</ele></trkpt>
   <trkpt lat="52.433652" lon="13.189452"><ele>41.75</ele></trkpt>
   <trkpt lat="52.433633" lon="13.189509"><ele>42</ele></trkpt>
   <trkpt lat="52.433584" lon="13.189628"><ele>41.75</ele></trkpt>
   <trkpt lat="52.433521" lon="13.189832"><ele>42</ele></trkpt>
   <trkpt lat="52.433496" lon="13.189941"><ele>42</ele></trkpt>
   <trkpt lat="52.433474" lon="13.190087"><ele>42</ele></trkpt>
   <trkpt lat="52.433448" lon="13.190361"><ele>42</ele></trkpt>
   <trkpt lat="52.43345" lon="13.190643"><ele>41.75</ele></trkpt>
   <trkpt lat="52.433553" lon="13.191691"><ele>40.75</ele></trkpt>
   <trkpt lat="52.43357" lon="13.191857"><ele>40.75</ele></trkpt>
   <trkpt lat="52.433579" lon="13.191924"><ele>40.75</ele></trkpt>
   <trkpt lat="52.433585" lon="13.191966"><ele>40.5</ele></trkpt>
   <trkpt lat="52.433604" lon="13.192136"><ele>38.75</ele></trkpt>
   <trkpt lat="52.433629" lon="13.192361"><ele>36</ele></trkpt>
   <trkpt lat="52.433678" lon="13.192835"><ele>35</ele></trkpt>
   <trkpt lat="52.433708" lon="13.193121"><ele>39.5</ele></trkpt>
   <trkpt lat="52.433722" lon="13.19324"><ele>40</ele></trkpt>
   <trkpt lat="52.433729" lon="13.193311"><ele>40.25</ele></trkpt>
   <trkpt lat="52.433735" lon="13.19336"><ele>40.75</ele></trkpt>
   <trkpt lat="52.43374" lon="13.193405"><ele>41</ele></trkpt>
   <trkpt lat="52.43377" lon="13.193489"><ele>41.25</ele></trkpt>
   <trkpt lat="52.433796" lon="13.193696"><ele>41.75</ele></trkpt>
   <trkpt lat="52.433821" lon="13.193945"><ele>41.75</ele></trkpt>
   <trkpt lat="52.433828" lon="13.194008"><ele>41.5</ele></trkpt>
   <trkpt lat="52.433847" lon="13.194199"><ele>41.25</ele></trkpt>
   <trkpt lat="52.43386" lon="13.194325"><ele>41</ele></trkpt>
   <trkpt lat="52.4339" lon="13.194685"><ele>41</ele></trkpt>
   <trkpt lat="52.433931" lon="13.194835"><ele>41.25</ele></trkpt>
   <trkpt lat="52.433969" lon="13.194958"><ele>41.75</ele></trkpt>
   <trkpt lat="52.434467" lon="13.196215"><ele>41.75</ele></trkpt>
   <trkpt lat="52.434943" lon="13.19741"><ele>39.25</ele></trkpt>
   <trkpt lat="52.434962" lon="13.197475"><ele>39</ele></trkpt>
   <trkpt lat="52.43498" lon="13.197595"><ele>38.75</ele></trkpt>
   <trkpt lat="52.434974" lon="13.19778"><ele>38</ele></trkpt>
   <trkpt lat="52.435034" lon="13.197814"><ele>38</ele></trkpt>
   <trkpt lat="52.435081" lon="13.197848"><ele>38.5</ele></trkpt>
   <trkpt lat="52.435116" lon="13.197872"><ele>38.5</ele></trkpt>
   <trkpt lat="52.435121" lon="13.197875"><ele>38.5</ele></trkpt>
   <trkpt lat="52.435189" lon="13.197983"><ele>38.75</ele></trkpt>
   <trkpt lat="52.435258" lon="13.198092"><ele>38.75</ele></trkpt>
   <trkpt lat="52.435397" lon="13.198439"><ele>38.5</ele></trkpt>
   <trkpt lat="52.435577" lon="13.198982"><ele>37.25</ele></trkpt>
   <trkpt lat="52.43599" lon="13.198954"><ele>37.25</ele></trkpt>
   <trkpt lat="52.436117" lon="13.198955"><ele>36.75</ele></trkpt>
   <trkpt lat="52.436228" lon="13.199004"><ele>36.25</ele></trkpt>
   <trkpt lat="52.436293" lon="13.199052"><ele>35.25</ele></trkpt>
   <trkpt lat="52.436357" lon="13.199158"><ele>33.5</ele></trkpt>
   <trkpt lat="52.436425" lon="13.199298"><ele>32.25</ele></trkpt>
   <trkpt lat="52.436307" lon="13.199485"><ele>33</ele></trkpt>
   <trkpt lat="52.436219" lon="13.199741"><ele>33.75</ele></trkpt>
   <trkpt lat="52.436095" lon="13.200203"><ele>32.5</ele></trkpt>
   <trkpt lat="52.436048" lon="13.200589"><ele>32.75</ele></trkpt>
   <trkpt lat="52.436064" lon="13.200838"><ele>32.75</ele></trkpt>
   <trkpt lat="52.436151" lon="13.201113"><ele>33.5</ele></trkpt>
   <trkpt lat="52.436244" lon="13.201276"><ele>34.5</ele></trkpt>
   <trkpt lat="52.436359" lon="13.201388"><ele>33.5</ele></trkpt>
   <trkpt lat="52.436479" lon="13.201484"><ele>33.75</ele></trkpt>
   <trkpt lat="52.436848" lon="13.201748"><ele>33.75</ele></trkpt>
   <trkpt lat="52.437085" lon="13.201901"><ele>34</ele></trkpt>
   <trkpt lat="52.437211" lon="13.201997"><ele>33.75</ele></trkpt>
   <trkpt lat="52.437547" lon="13.202226"><ele>33.75</ele></trkpt>
   <trkpt lat="52.438008" lon="13.202485"><ele>33.5</ele></trkpt>
   <trkpt lat="52.438101" lon="13.202578"><ele>33.75</ele></trkpt>
   <trkpt lat="52.4384" lon="13.202963"><ele>34</ele></trkpt>
   <trkpt lat="52.438457" lon="13.203061"><ele>34.25</ele></trkpt>
   <trkpt lat="52.43857" lon="13.203539"><ele>33.75</ele></trkpt>
   <trkpt lat="52.438661" lon="13.203848"><ele>34.75</ele></trkpt>
   <trkpt lat="52.438785" lon="13.204127"><ele>35</ele></trkpt>
   <trkpt lat="52.439114" lon="13.204755"><ele>33.75</ele></trkpt>
   <trkpt lat="52.439264" lon="13.205101"><ele>34</ele></trkpt>
   <trkpt lat="52.439493" lon="13.205829"><ele>34.25</ele></trkpt>
   <trkpt lat="52.439562" lon="13.206016"><ele>35</ele></trkpt>
   <trkpt lat="52.439785" lon="13.206529"><ele>35.5</ele></trkpt>
   <trkpt lat="52.439879" lon="13.2067"><ele>35</ele></trkpt>
   <trkpt lat="52.440078" lon="13.207174"><ele>33.25</ele></trkpt>
   <trkpt lat="52.440105" lon="13.207276"><ele>33.25</ele></trkpt>
   <trkpt lat="52.440118" lon="13.20743"><ele>34</ele></trkpt>
   <trkpt lat="52.440109" lon="13.207461"><ele>34.25</ele></trkpt>
   <trkpt lat="52.440071" lon="13.207507"><ele>35</ele></trkpt>
   <trkpt lat="52.440061" lon="13.207613"><ele>35.75</ele></trkpt>
   <trkpt lat="52.440106" lon="13.207796"><ele>35.75</ele></trkpt>
   <trkpt lat="52.440222" lon="13.208355"><ele>33.75</ele></trkpt>
   <trkpt lat="52.440319" lon="13.20884"><ele>34.25</ele></trkpt>
   <trkpt lat="52.440372" lon="13.209073"><ele>34.75</ele></trkpt>
   <trkpt lat="52.440443" lon="13.209305"><ele>34</ele></trkpt>
   <trkpt lat="52.440499" lon="13.209444"><ele>33</ele></trkpt>
   <trkpt lat="52.440532" lon="13.209573"><ele>32.75</ele></trkpt>
   <trkpt lat="52.440636" lon="13.209885"><ele>32.5</ele></trkpt>
   <trkpt lat="52.440649" lon="13.210002"><ele>32.5</ele></trkpt>
   <trkpt lat="52.44065" lon="13.210152"><ele>32.25</ele></trkpt>
   <trkpt lat="52.440615" lon="13.210901"><ele>32</ele></trkpt>
   <trkpt lat="52.440578" lon="13.21157"><ele>32</ele></trkpt>
   <trkpt lat="52.440548" lon="13.211836"><ele>32</ele></trkpt>
   <trkpt lat="52.440558" lon="13.212394"><ele>32</ele></trkpt>
   <trkpt lat="52.440577" lon="13.212542"><ele>32.25</ele></trkpt>
   <trkpt lat="52.440629" lon="13.21267"><ele>33.25</ele></trkpt>
   <trkpt lat="52.440662" lon="13.212749"><ele>33.5</ele></trkpt>
   <trkpt lat="52.440711" lon="13.212885"><ele>33.5</ele></trkpt>
   <trkpt lat="52.440825" lon="13.213348"><ele>32</ele></trkpt>
   <trkpt lat="52.440845" lon="13.213449"><ele>32</ele></trkpt>
   <trkpt lat="52.440829" lon="13.213592"><ele>32</ele></trkpt>
   <trkpt lat="52.440818" lon="13.213924"><ele>32.5</ele></trkpt>
   <trkpt lat="52.440863" lon="13.214197"><ele>33.75</ele></trkpt>
   <trkpt lat="52.441006" lon="13.21492"><ele>33.75</ele></trkpt>
   <trkpt lat="52.441055" lon="13.215221"><ele>33.5</ele></trkpt>
   <trkpt lat="52.441132" lon="13.215493"><ele>33.5</ele></trkpt>
   <trkpt lat="52.441155" lon="13.215714"><ele>33.5</ele></trkpt>
   <trkpt lat="52.441168" lon="13.216077"><ele>33.5</ele></trkpt>
   <trkpt lat="52.441192" lon="13.216131"><ele>33.25</ele></trkpt>
   <trkpt lat="52.441274" lon="13.216741"><ele>34.25</ele></trkpt>
   <trkpt lat="52.441364" lon="13.216971"><ele>33.75</ele></trkpt>
   <trkpt lat="52.441467" lon="13.217145"><ele>34</ele></trkpt>
   <trkpt lat="52.441558" lon="13.217299"><ele>34</ele></trkpt>
   <trkpt lat="52.44186" lon="13.217811"><ele>34.5</ele></trkpt>
   <trkpt lat="52.44197" lon="13.218016"><ele>33.5</ele></trkpt>
   <trkpt lat="52.442084" lon="13.218188"><ele>33.25</ele></trkpt>
   <trkpt lat="52.442146" lon="13.218253"><ele>32.75</ele></trkpt>
   <trkpt lat="52.442185" lon="13.218319"><ele>32.5</ele></trkpt>
   <trkpt lat="52.442225" lon="13.218448"><ele>32.25</ele></trkpt>
   <trkpt lat="52.442247" lon="13.218591"><ele>32.75</ele></trkpt>
   <trkpt lat="52.442569" lon="13.219039"><ele>34.75</ele></trkpt>
   <trkpt lat="52.442673" lon="13.219136"><ele>34.5</ele></trkpt>
   <trkpt lat="52.442903" lon="13.219215"><ele>33</ele></trkpt>
   <trkpt lat="52.443011" lon="13.219235"><ele>33</ele></trkpt>
   <trkpt lat="52.443133" lon="13.219221"><ele>33</ele></trkpt>
   <trkpt lat="52.443417" lon="13.219108"><ele>33.25</ele></trkpt>
   <trkpt lat="52.443582" lon="13.218987"><ele>32.75</ele></trkpt>
   <trkpt lat="52.443752" lon="13.218894"><ele>32.5</ele></trkpt>
   <trkpt lat="52.444112" lon="13.218789"><ele>33</ele></trkpt>
   <trkpt lat="52.444253" lon="13.218776"><ele>33</ele></trkpt>
   <trkpt lat="52.444404" lon="13.218782"><ele>32.5</ele></trkpt>
   <trkpt lat="52.444502" lon="13.21884"><ele>32.5</ele></trkpt>
   <trkpt lat="52.444586" lon="13.218869"><ele>32.25</ele></trkpt>
   <trkpt lat="52.444691" lon="13.218954"><ele>32.25</ele></trkpt>
   <trkpt lat="52.444849" lon="13.219374"><ele>33.25</ele></trkpt>
   <trkpt lat="52.445055" lon="13.219755"><ele>32.75</ele></trkpt>
   <trkpt lat="52.445097" lon="13.219878"><ele>33</ele></trkpt>
   <trkpt lat="52.445122" lon="13.220114"><ele>32.75</ele></trkpt>
   <trkpt lat="52.445088" lon="13.220267"><ele>32.5</ele></trkpt>
   <trkpt lat="52.444498" lon="13.221411"><ele>32.5</ele></trkpt>
   <trkpt lat="52.444271" lon="13.221722"><ele>33.5</ele></trkpt>
   <trkpt lat="52.44409" lon="13.222167"><ele>33.5</ele></trkpt>
   <trkpt lat="52.443925" lon="13.222427"><ele>33</ele></trkpt>
   <trkpt lat="52.443765" lon="13.222739"><ele>34.5</ele></trkpt>
   <trkpt lat="52.443696" lon="13.222928"><ele>34.25</ele></trkpt>
   <trkpt lat="52.443608" lon="13.223337"><ele>32</ele></trkpt>
   <trkpt lat="52.443582" lon="13.223701"><ele>32.5</ele></trkpt>
   <trkpt lat="52.443546" lon="13.224074"><ele>33.25</ele></trkpt>
   <trkpt lat="52.44349" lon="13.224534"><ele>34</ele></trkpt>
   <trkpt lat="52.44348" lon="13.224838"><ele>33.5</ele></trkpt>
   <trkpt lat="52.443496" lon="13.225457"><ele>33</ele></trkpt>
   <trkpt lat="52.443535" lon="13.225884"><ele>32.75</ele></trkpt>
   <trkpt lat="52.443623" lon="13.226386"><ele>32.75</ele></trkpt>
   <trkpt lat="52.443704" lon="13.22675"><ele>33.5</ele></trkpt>
   <trkpt lat="52.443766" lon="13.226936"><ele>33.25</ele></trkpt>
   <trkpt lat="52.443844" lon="13.227119"><ele>32.75</ele></trkpt>
   <trkpt lat="52.444083" lon="13.227448"><ele>32.25</ele></trkpt>
   <trkpt lat="52.44426" lon="13.227732"><ele>32.5</ele></trkpt>
   <trkpt lat="52.444451" lon="13.228021"><ele>32</ele></trkpt>
   <trkpt lat="52.444602" lon="13.228229"><ele>32.5</ele></trkpt>
   <trkpt lat="52.44476" lon="13.228389"><ele>33.5</ele></trkpt>
   <trkpt lat="52.444804" lon="13.228428"><ele>33.75</ele></trkpt>
   <trkpt lat="52.444872" lon="13.228466"><ele>34</ele></trkpt>
   <trkpt lat="52.444859" lon="13.228391"><ele>33.75</ele></trkpt>
   <trkpt lat="52.444862" lon="13.22835"><ele>33.5</ele></trkpt>
   <trkpt lat="52.444872" lon="13.22822"><ele>33.25</ele></trkpt>
   <trkpt lat="52.444934" lon="13.227846"><ele>33.5</ele></trkpt>
   <trkpt lat="52.44489" lon="13.227739"><ele>33.25</ele></trkpt>
   <trkpt lat="52.444807" lon="13.227277"><ele>32.5</ele></trkpt>
   <trkpt lat="52.444783" lon="13.227144"><ele>32.5</ele></trkpt>
   <trkpt lat="52.444784" lon="13.227092"><ele>32.5</ele></trkpt>
   <trkpt lat="52.444931" lon="13.22658"><ele>33.5</ele></trkpt>
   <trkpt lat="52.444966" lon="13.226457"><ele>33.75</ele></trkpt>
   <trkpt lat="52.445114" lon="13.226165"><ele>34.25</ele></trkpt>
   <trkpt lat="52.445286" lon="13.225858"><ele>33.25</ele></trkpt>
   <trkpt lat="52.445377" lon="13.225622"><ele>34</ele></trkpt>
   <trkpt lat="52.445414" lon="13.225484"><ele>34</ele></trkpt>
   <trkpt lat="52.445477" lon="13.224799"><ele>33.25</ele></trkpt>
   <trkpt lat="52.445514" lon="13.224553"><ele>33</ele></trkpt>
   <trkpt lat="52.445546" lon="13.224449"><ele>32.75</ele></trkpt>
   <trkpt lat="52.445629" lon="13.224341"><ele>33.25</ele></trkpt>
   <trkpt lat="52.445706" lon="13.224293"><ele>34</ele></trkpt>
   <trkpt lat="52.445768" lon="13.224224"><ele>34</ele></trkpt>
   <trkpt lat="52.445822" lon="13.22402"><ele>33.25</ele></trkpt>
   <trkpt lat="52.445898" lon="13.22363"><ele>33.5</ele></trkpt>
   <trkpt lat="52.446096" lon="13.222982"><ele>33.5</ele></trkpt>
   <trkpt lat="52.446137" lon="13.222721"><ele>33.5</ele></trkpt>
   <trkpt lat="52.446141" lon="13.222415"><ele>33.25</ele></trkpt>
   <trkpt lat="52.446192" lon="13.222153"><ele>33.75</ele></trkpt>
   <trkpt lat="52.446374" lon="13.221684"><ele>34</ele></trkpt>
   <trkpt lat="52.446408" lon="13.221556"><ele>34</ele></trkpt>
   <trkpt lat="52.446438" lon="13.221279"><ele>34</ele></trkpt>
   <trkpt lat="52.446456" lon="13.221025"><ele>34.75</ele></trkpt>
   <trkpt lat="52.446451" lon="13.220741"><ele>35.5</ele></trkpt>
   <trkpt lat="52.446433" lon="13.220533"><ele>34.75</ele></trkpt>
   <trkpt lat="52.446293" lon="13.219504"><ele>36</ele></trkpt>
   <trkpt lat="52.446251" lon="13.219303"><ele>36</ele></trkpt>
   <trkpt lat="52.44621" lon="13.219151"><ele>35.25</ele></trkpt>
   <trkpt lat="52.446079" lon="13.218744"><ele>34.25</ele></trkpt>
   <trkpt lat="52.446015" lon="13.218471"><ele>35.5</ele></trkpt>
   <trkpt lat="52.445899" lon="13.218097"><ele>34.25</ele></trkpt>
   <trkpt lat="52.44579" lon="13.217851"><ele>34.25</ele></trkpt>
   <trkpt lat="52.44518" lon="13.216747"><ele>35</ele></trkpt>
   <trkpt lat="52.445059" lon="13.216552"><ele>35.25</ele></trkpt>
   <trkpt lat="52.444727" lon="13.216212"><ele>35.25</ele></trkpt>
   <trkpt lat="52.444394" lon="13.215962"><ele>33.75</ele></trkpt>
   <trkpt lat="52.44432" lon="13.215863"><ele>33.75</ele></trkpt>
   <trkpt lat="52.444178" lon="13.215718"><ele>34.25</ele></trkpt>
   <trkpt lat="52.443665" lon="13.215143"><ele>33.5</ele></trkpt>
   <trkpt lat="52.443511" lon="13.214868"><ele>34</ele></trkpt>
   <trkpt lat="52.443383" lon="13.214739"><ele>33.25</ele></trkpt>
   <trkpt lat="52.443151" lon="13.21453"><ele>33.5</ele></trkpt>
   <trkpt lat="52.442903" lon="13.214177"><ele>33.25</ele></trkpt>
   <trkpt lat="52.442541" lon="13.21394"><ele>33</ele></trkpt>
   <trkpt lat="52.442189" lon="13.213564"><ele>33</ele></trkpt>
   <trkpt lat="52.442124" lon="13.213415"><ele>33.5</ele></trkpt>
   <trkpt lat="52.442073" lon="13.213154"><ele>33.75</ele></trkpt>
   <trkpt lat="52.442029" lon="13.212978"><ele>33.75</ele></trkpt>
   <trkpt lat="52.441934" lon="13.212663"><ele>33.75</ele></trkpt>
   <trkpt lat="52.441854" lon="13.21248"><ele>34</ele></trkpt>
   <trkpt lat="52.441746" lon="13.212279"><ele>33.75</ele></trkpt>
   <trkpt lat="52.441689" lon="13.212095"><ele>33.75</ele></trkpt>
   <trkpt lat="52.44162" lon="13.21181"><ele>33.5</ele></trkpt>
   <trkpt lat="52.441614" lon="13.211706"><ele>33.5</ele></trkpt>
   <trkpt lat="52.441623" lon="13.211541"><ele>33.5</ele></trkpt>
   <trkpt lat="52.441695" lon="13.211326"><ele>34.25</ele></trkpt>
   <trkpt lat="52.441778" lon="13.211038"><ele>35.25</ele></trkpt>
   <trkpt lat="52.441809" lon="13.210812"><ele>35</ele></trkpt>
   <trkpt lat="52.441811" lon="13.210488"><ele>35</ele></trkpt>
   <trkpt lat="52.441783" lon="13.209893"><ele>34</ele></trkpt>
   <trkpt lat="52.441818" lon="13.209345"><ele>34.5</ele></trkpt>
   <trkpt lat="52.441861" lon="13.208997"><ele>34.75</ele></trkpt>
   <trkpt lat="52.44184" lon="13.208718"><ele>34.75</ele></trkpt>
   <trkpt lat="52.441811" lon="13.208519"><ele>34.75</ele></trkpt>
   <trkpt lat="52.441806" lon="13.208306"><ele>35.5</ele></trkpt>
   <trkpt lat="52.441824" lon="13.208039"><ele>35.75</ele></trkpt>
   <trkpt lat="52.441898" lon="13.207558"><ele>34.75</ele></trkpt>
   <trkpt lat="52.441905" lon="13.207303"><ele>34.5</ele></trkpt>
   <trkpt lat="52.441894" lon="13.207049"><ele>34.25</ele></trkpt>
   <trkpt lat="52.441854" lon="13.206615"><ele>34.25</ele></trkpt>
   <trkpt lat="52.441835" lon="13.206477"><ele>34.5</ele></trkpt>
   <trkpt lat="52.4418" lon="13.206137"><ele>35.25</ele></trkpt>
   <trkpt lat="52.441765" lon="13.205917"><ele>35</ele></trkpt>
   <trkpt lat="52.441726" lon="13.205737"><ele>35</ele></trkpt>
   <trkpt lat="52.441665" lon="13.205567"><ele>34.75</ele></trkpt>
   <trkpt lat="52.441483" lon="13.205333"><ele>35</ele></trkpt>
   <trkpt lat="52.441325" lon="13.205196"><ele>34.5</ele></trkpt>
   <trkpt lat="52.441258" lon="13.205114"><ele>34.5</ele></trkpt>
   <trkpt lat="52.441222" lon="13.204994"><ele>34.75</ele></trkpt>
   <trkpt lat="52.441068" lon="13.204355"><ele>35.5</ele></trkpt>
   <trkpt lat="52.440842" lon="13.203843"><ele>34.5</ele></trkpt>
   <trkpt lat="52.440957" lon="13.203771"><ele>37</ele></trkpt>
   <trkpt lat="52.441001" lon="13.203731"><ele>37.75</ele></trkpt>
   <trkpt lat="52.441049" lon="13.203594"><ele>38.5</ele></trkpt>
   <trkpt lat="52.441049" lon="13.203314"><ele>42.25</ele></trkpt>
   <trkpt lat="52.441019" lon="13.203212"><ele>42.25</ele></trkpt>
   <trkpt lat="52.440981" lon="13.203104"><ele>42.75</ele></trkpt>
   <trkpt lat="52.440933" lon="13.202912"><ele>43.25</ele></trkpt>
   <trkpt lat="52.440843" lon="13.202681"><ele>43.5</ele></trkpt>
   <trkpt lat="52.440807" lon="13.202477"><ele>43</ele></trkpt>
   <trkpt lat="52.440718" lon="13.202185"><ele>43</ele></trkpt>
   <trkpt lat="52.440518" lon="13.201976"><ele>42.75</ele></trkpt>
   <trkpt lat="52.440511" lon="13.201634"><ele>43.75</ele></trkpt>
   <trkpt lat="52.440562" lon="13.20152"><ele>44</ele></trkpt>
   <trkpt lat="52.440708" lon="13.201192"><ele>44.25</ele></trkpt>
   <trkpt lat="52.440791" lon="13.201005"><ele>44</ele></trkpt>
   <trkpt lat="52.441096" lon="13.200316"><ele>44.75</ele></trkpt>
   <trkpt lat="52.441135" lon="13.20023"><ele>45</ele></trkpt>
   <trkpt lat="52.441226" lon="13.200132"><ele>45</ele></trkpt>
   <trkpt lat="52.441132" lon="13.200103"><ele>45</ele></trkpt>
   <trkpt lat="52.440969" lon="13.19992"><ele>45</ele></trkpt>
   <trkpt lat="52.440785" lon="13.199641"><ele>45</ele></trkpt>
   <trkpt lat="52.440549" lon="13.199337"><ele>44.75</ele></trkpt>
   <trkpt lat="52.439953" lon="13.198616"><ele>43.75</ele></trkpt>
   <trkpt lat="52.43924" lon="13.197663"><ele>43.75</ele></trkpt>
   <trkpt lat="52.437882" lon="13.195907"><ele>45.5</ele></trkpt>
   <trkpt lat="52.43685" lon="13.194647"><ele>46</ele></trkpt>
   <trkpt lat="52.436227" lon="13.193698"><ele>45</ele></trkpt>
   <trkpt lat="52.435365" lon="13.192086"><ele>44.5</ele></trkpt>
   <trkpt lat="52.435332" lon="13.192025"><ele>43</ele></trkpt>
   <trkpt lat="52.434301" lon="13.190141"><ele>43</ele></trkpt>
   <trkpt lat="52.434156" lon="13.189833"><ele>42.75</ele></trkpt>
   <trkpt lat="52.434033" lon="13.18957"><ele>42.5</ele></trkpt>
   <trkpt lat="52.433978" lon="13.18943"><ele>42.25</ele></trkpt>
   <trkpt lat="52.433952" lon="13.189305"><ele>42</ele></trkpt>
   <trkpt lat="52.433945" lon="13.189294"><ele>42</ele></trkpt>
   <trkpt lat="52.433907" lon="13.189228"><ele>42</ele></trkpt>
   <trkpt lat="52.433857" lon="13.189142"><ele>42</ele></trkpt>
   <trkpt lat="52.433844" lon="13.189121"><ele>42</ele></trkpt>
   <trkpt lat="52.433806" lon="13.189056"><ele>42.25</ele></trkpt>
   <trkpt lat="52.43378" lon="13.1891"><ele>42</ele></trkpt>
   <trkpt lat="52.433711" lon="13.189198"><ele>41.75</ele></trkpt>
   <trkpt lat="52.433693" lon="13.189162"><ele>42</ele></trkpt>
   <trkpt lat="52.433666" lon="13.189109"><ele>42</ele></trkpt>
   <trkpt lat="52.433345" lon="13.188476"><ele>41</ele></trkpt>
   <trkpt lat="52.433131" lon="13.188104"><ele>39.75</ele></trkpt>
   <trkpt lat="52.432665" lon="13.187388"><ele>37</ele></trkpt>
   <trkpt lat="52.432602" lon="13.187292"><ele>36.5</ele></trkpt>
   <trkpt lat="52.432396" lon="13.186977"><ele>35.5</ele></trkpt>
   <trkpt lat="52.432201" lon="13.186676"><ele>34.75</ele></trkpt>
   <trkpt lat="52.432415" lon="13.186263"><ele>36.25</ele></trkpt>
   <trkpt lat="52.432399" lon="13.186237"><ele>36</ele></trkpt>
   <trkpt lat="52.432622" lon="13.185829"><ele>37.25</ele></trkpt>
   <trkpt lat="52.432551" lon="13.185752"><ele>36.5</ele></trkpt>
   <trkpt lat="52.432479" lon="13.185719"><ele>35.75</ele></trkpt>
  </trkseg>
 </trk>
</gpx>